ADAG   ?    BHZ  ? P      ? 20230212 2214 37.6800 GAU  0.00e+00 -1.00e+00 -1.00e+00 -1.00e+00
ADK    ?    BHZ  ? Pg     ? 20230212 2214 36.3700 GAU  0.00e+00 -1.00e+00 -1.00e+00 -1.00e+00
AMKA   ?    BHZ  ? Pn     ? 20230212 2214 51.3400 GAU  0.00e+00 -1.00e+00 -1.00e+00 -1.00e+00
CEAP   ?    BHZ  ? Pn     ? 20230212 2214 48.2300 GAU  0.00e+00 -1.00e+00 -1.00e+00 -1.00e+00
CEPE   ?    BHZ  ? P      ? 20230212 2214 47.4100 GAU  0.00e+00 -1.00e+00 -1.00e+00 -1.00e+00
CEPE   ?    BHZ  ? P      ? 20230212 2214 47.8800 GAU  0.00e+00 -1.00e+00 -1.00e+00 -1.00e+00
CESW   ?    BHZ  ? P      ? 20230212 2214 48.1300 GAU  0.00e+00 -1.00e+00 -1.00e+00 -1.00e+00
ETKA   ?    BHN  ? S      ? 20230212 2214 52.5800 GAU  0.00e+00 -1.00e+00 -1.00e+00 -1.00e+00
ETKA   ?    BHZ  ? P      ? 20230212 2214 39.0700 GAU  0.00e+00 -1.00e+00 -1.00e+00 -1.00e+00
GAKI   ?    BHN  ? S      ? 20230212 2214 40.7700 GAU  0.00e+00 -1.00e+00 -1.00e+00 -1.00e+00
GANE   ?    BHN  ? S      ? 20230212 2214 39.9100 GAU  0.00e+00 -1.00e+00 -1.00e+00 -1.00e+00
GANO   ?    BHZ  ? Pg     ? 20230212 2214 30.9200 GAU  0.00e+00 -1.00e+00 -1.00e+00 -1.00e+00
GSCK   ?    BHZ  ? P      ? 20230212 2214 42.1300 GAU  0.00e+00 -1.00e+00 -1.00e+00 -1.00e+00
GSIG   ?    BHN  ? S      ? 20230212 2215  1.8200 GAU  0.00e+00 -1.00e+00 -1.00e+00 -1.00e+00
GSIG   ?    BHZ  ? P      ? 20230212 2214 44.0500 GAU  0.00e+00 -1.00e+00 -1.00e+00 -1.00e+00
GSMY   ?    BHE  ? S      ? 20230212 2215  0.4500 GAU  0.00e+00 -1.00e+00 -1.00e+00 -1.00e+00
GSMY   ?    BHZ  ? P      ? 20230212 2214 42.9800 GAU  0.00e+00 -1.00e+00 -1.00e+00 -1.00e+00
GSSP   ?    BHN  ? S      ? 20230212 2214 57.9200 GAU  0.00e+00 -1.00e+00 -1.00e+00 -1.00e+00
GSSP   ?    BHZ  ? P      ? 20230212 2214 41.9500 GAU  0.00e+00 -1.00e+00 -1.00e+00 -1.00e+00
GSTR   ?    BHZ  ? Pn     ? 20230212 2214 43.7300 GAU  0.00e+00 -1.00e+00 -1.00e+00 -1.00e+00
KICM   ?    BHZ  ? P      ? 20230212 2214 31.3400 GAU  0.00e+00 -1.00e+00 -1.00e+00 -1.00e+00
KIKV   ?    BHN  ? S      ? 20230212 2214 38.9300 GAU  0.00e+00 -1.00e+00 -1.00e+00 -1.00e+00
KIKV   ?    BHZ  ? P      ? 20230212 2214 31.3100 GAU  0.00e+00 -1.00e+00 -1.00e+00 -1.00e+00
KIMD   ?    BHN  ? S      ? 20230212 2214 37.7700 GAU  0.00e+00 -1.00e+00 -1.00e+00 -1.00e+00
KIMD   ?    BHZ  ? P      ? 20230212 2214 30.7600 GAU  0.00e+00 -1.00e+00 -1.00e+00 -1.00e+00
KINC   ?    BHZ  ? P      ? 20230212 2214 31.9400 GAU  0.00e+00 -1.00e+00 -1.00e+00 -1.00e+00
KIRH   ?    BHE  ? S      ? 20230212 2214 40.1600 GAU  0.00e+00 -1.00e+00 -1.00e+00 -1.00e+00
KIRH   ?    BHZ  ? P      ? 20230212 2214 32.1500 GAU  0.00e+00 -1.00e+00 -1.00e+00 -1.00e+00
KIWB   ?    BHN  ? S      ? 20230212 2214 38.0200 GAU  0.00e+00 -1.00e+00 -1.00e+00 -1.00e+00
KIWB   ?    BHZ  ? P      ? 20230212 2214 31.2600 GAU  0.00e+00 -1.00e+00 -1.00e+00 -1.00e+00
TAFL   ?    BHN  ? S      ? 20230212 2214 26.8500 GAU  0.00e+00 -1.00e+00 -1.00e+00 -1.00e+00
TAFL   ?    BHZ  ? P      ? 20230212 2214 24.3100 GAU  0.00e+00 -1.00e+00 -1.00e+00 -1.00e+00
TAFP   ?    BHN  ? S      ? 20230212 2214 22.8600 GAU  0.00e+00 -1.00e+00 -1.00e+00 -1.00e+00
TAFP   ?    BHN  ? S      ? 20230212 2214 24.0000 GAU  0.00e+00 -1.00e+00 -1.00e+00 -1.00e+00
TANO   ?    BHZ  ? P      ? 20230212 2214 24.1600 GAU  0.00e+00 -1.00e+00 -1.00e+00 -1.00e+00
TAPA   ?    BHN  ? S      ? 20230212 2214 26.4500 GAU  0.00e+00 -1.00e+00 -1.00e+00 -1.00e+00
TAPA   ?    BHZ  ? P      ? 20230212 2214 24.2400 GAU  0.00e+00 -1.00e+00 -1.00e+00 -1.00e+00
TASE   ?    BHE  ? S      ? 20230212 2214 23.6900 GAU  0.00e+00 -1.00e+00 -1.00e+00 -1.00e+00
TASE   ?    BHE  ? S      ? 20230212 2214 23.8500 GAU  0.00e+00 -1.00e+00 -1.00e+00 -1.00e+00
TASE   ?    BHZ  ? P      ? 20230212 2214 22.6900 GAU  0.00e+00 -1.00e+00 -1.00e+00 -1.00e+00
TASO   ?    BHN  ? S      ? 20230212 2214 25.9400 GAU  0.00e+00 -1.00e+00 -1.00e+00 -1.00e+00
TASO   ?    BHZ  ? P      ? 20230212 2214 23.8800 GAU  0.00e+00 -1.00e+00 -1.00e+00 -1.00e+00
