ADAG   ?    BHZ  ? P      ? 20230212 0551 46.3900 GAU  0.00e+00 -1.00e+00 -1.00e+00 -1.00e+00
ADK    ?    BH2  ? S      ? 20230212 0551 56.0900 GAU  0.00e+00 -1.00e+00 -1.00e+00 -1.00e+00
ADK    ?    BHZ  ? P      ? 20230212 0551 45.3400 GAU  0.00e+00 -1.00e+00 -1.00e+00 -1.00e+00
AMKA   ?    BHZ  ? Pn     ? 20230212 0552  0.8600 GAU  0.00e+00 -1.00e+00 -1.00e+00 -1.00e+00
CEPE   ?    BHE  ? S      ? 20230212 0552 14.1600 GAU  0.00e+00 -1.00e+00 -1.00e+00 -1.00e+00
CEPE   ?    BHZ  ? P      ? 20230212 0551 56.0000 GAU  0.00e+00 -1.00e+00 -1.00e+00 -1.00e+00
CESW   ?    BHN  ? S      ? 20230212 0552 16.5800 GAU  0.00e+00 -1.00e+00 -1.00e+00 -1.00e+00
CESW   ?    BHZ  ? P      ? 20230212 0551 56.4800 GAU  0.00e+00 -1.00e+00 -1.00e+00 -1.00e+00
ETKA   ?    BHE  ? S      ? 20230212 0552  1.3200 GAU  0.00e+00 -1.00e+00 -1.00e+00 -1.00e+00
ETKA   ?    BHZ  ? P      ? 20230212 0551 48.3900 GAU  0.00e+00 -1.00e+00 -1.00e+00 -1.00e+00
GAKI   ?    BHE  ? S      ? 20230212 0551 49.7900 GAU  0.00e+00 -1.00e+00 -1.00e+00 -1.00e+00
GAKI   ?    BHZ  ? P      ? 20230212 0551 41.4000 GAU  0.00e+00 -1.00e+00 -1.00e+00 -1.00e+00
GALA   ?    BHN  ? S      ? 20230212 0551 47.4200 GAU  0.00e+00 -1.00e+00 -1.00e+00 -1.00e+00
GALA   ?    BHZ  ? P      ? 20230212 0551 40.1000 GAU  0.00e+00 -1.00e+00 -1.00e+00 -1.00e+00
GANE   ?    BHZ  ? P      ? 20230212 0551 39.9000 GAU  0.00e+00 -1.00e+00 -1.00e+00 -1.00e+00
GANO   ?    BHZ  ? Pg     ? 20230212 0551 40.2100 GAU  0.00e+00 -1.00e+00 -1.00e+00 -1.00e+00
GASW   ?    BHE  ? S      ? 20230212 0551 48.5300 GAU  0.00e+00 -1.00e+00 -1.00e+00 -1.00e+00
GASW   ?    BHZ  ? P      ? 20230212 0551 40.5300 GAU  0.00e+00 -1.00e+00 -1.00e+00 -1.00e+00
GSCK   ?    BHE  ? S      ? 20230212 0552  7.1500 GAU  0.00e+00 -1.00e+00 -1.00e+00 -1.00e+00
GSCK   ?    BHZ  ? P      ? 20230212 0551 51.2200 GAU  0.00e+00 -1.00e+00 -1.00e+00 -1.00e+00
GSIG   ?    BHE  ? S      ? 20230212 0552 11.2300 GAU  0.00e+00 -1.00e+00 -1.00e+00 -1.00e+00
GSIG   ?    BHZ  ? P      ? 20230212 0551 53.8800 GAU  0.00e+00 -1.00e+00 -1.00e+00 -1.00e+00
GSSP   ?    BHE  ? S      ? 20230212 0552  6.8500 GAU  0.00e+00 -1.00e+00 -1.00e+00 -1.00e+00
GSSP   ?    BHZ  ? P      ? 20230212 0551 51.1600 GAU  0.00e+00 -1.00e+00 -1.00e+00 -1.00e+00
KICM   ?    BHE  ? S      ? 20230212 0551 48.2000 GAU  0.00e+00 -1.00e+00 -1.00e+00 -1.00e+00
KICM   ?    BHZ  ? P      ? 20230212 0551 40.1600 GAU  0.00e+00 -1.00e+00 -1.00e+00 -1.00e+00
KIKV   ?    BHN  ? S      ? 20230212 0551 47.5700 GAU  0.00e+00 -1.00e+00 -1.00e+00 -1.00e+00
KIKV   ?    BHZ  ? P      ? 20230212 0551 40.3800 GAU  0.00e+00 -1.00e+00 -1.00e+00 -1.00e+00
KIMD   ?    BHN  ? S      ? 20230212 0551 46.5900 GAU  0.00e+00 -1.00e+00 -1.00e+00 -1.00e+00
KIMD   ?    BHZ  ? P      ? 20230212 0551 39.8100 GAU  0.00e+00 -1.00e+00 -1.00e+00 -1.00e+00
KINC   ?    BHN  ? S      ? 20230212 0551 48.9100 GAU  0.00e+00 -1.00e+00 -1.00e+00 -1.00e+00
KIRH   ?    BHN  ? S      ? 20230212 0551 49.2300 GAU  0.00e+00 -1.00e+00 -1.00e+00 -1.00e+00
KIRH   ?    BHZ  ? P      ? 20230212 0551 41.3700 GAU  0.00e+00 -1.00e+00 -1.00e+00 -1.00e+00
KIWB   ?    BHE  ? S      ? 20230212 0551 47.8200 GAU  0.00e+00 -1.00e+00 -1.00e+00 -1.00e+00
KIWB   ?    BHZ  ? P      ? 20230212 0551 40.5100 GAU  0.00e+00 -1.00e+00 -1.00e+00 -1.00e+00
KOFP   ?    BHZ  ? P      ? 20230212 0552  9.9700 GAU  0.00e+00 -1.00e+00 -1.00e+00 -1.00e+00
TAFL   ?    BHN  ? S      ? 20230212 0551 35.6700 GAU  0.00e+00 -1.00e+00 -1.00e+00 -1.00e+00
TAFL   ?    BHZ  ? P      ? 20230212 0551 33.3100 GAU  0.00e+00 -1.00e+00 -1.00e+00 -1.00e+00
TAFP   ?    BHE  ? S      ? 20230212 0551 33.0700 GAU  0.00e+00 -1.00e+00 -1.00e+00 -1.00e+00
TAFP   ?    BHZ  ? P      ? 20230212 0551 32.0100 GAU  0.00e+00 -1.00e+00 -1.00e+00 -1.00e+00
TANO   ?    BHZ  ? P      ? 20230212 0551 33.1900 GAU  0.00e+00 -1.00e+00 -1.00e+00 -1.00e+00
TAPA   ?    BHN  ? S      ? 20230212 0551 35.4400 GAU  0.00e+00 -1.00e+00 -1.00e+00 -1.00e+00
TAPA   ?    BHZ  ? P      ? 20230212 0551 33.2700 GAU  0.00e+00 -1.00e+00 -1.00e+00 -1.00e+00
TASE   ?    BHN  ? S      ? 20230212 0551 32.8300 GAU  0.00e+00 -1.00e+00 -1.00e+00 -1.00e+00
TASE   ?    BHZ  ? P      ? 20230212 0551 31.8200 GAU  0.00e+00 -1.00e+00 -1.00e+00 -1.00e+00
TASO   ?    BHE  ? S      ? 20230212 0551 34.9000 GAU  0.00e+00 -1.00e+00 -1.00e+00 -1.00e+00
TASO   ?    BHZ  ? P      ? 20230212 0551 32.7700 GAU  0.00e+00 -1.00e+00 -1.00e+00 -1.00e+00
TASO   ?    BHZ  ? P      ? 20230212 0551 32.9400 GAU  0.00e+00 -1.00e+00 -1.00e+00 -1.00e+00
