TAFL   ?    BHN  i S      ? 20230212 0843 43.5400 GAU  2.00e-02 -1.00e+00 -1.00e+00 -1.00e+00
TAFL   ?    BHZ  i P      d 20230212 0843 41.0300 GAU  2.00e-02 -1.00e+00 -1.00e+00 -1.00e+00
TAFP   ?    BHN  i S      ? 20230212 0843 39.7100 GAU  2.00e-02 -1.00e+00 -1.00e+00 -1.00e+00
TAFP   ?    BHN  i S      ? 20230212 0843 40.9100 GAU  2.00e-02 -1.00e+00 -1.00e+00 -1.00e+00
TASE   ?    BHN  i S      ? 20230212 0843 40.5100 GAU  2.00e-02 -1.00e+00 -1.00e+00 -1.00e+00
TASE   ?    BHZ  i P      u 20230212 0843 39.5200 GAU  2.00e-02 -1.00e+00 -1.00e+00 -1.00e+00
TASO   ?    BHN  i S      ? 20230212 0843 42.6800 GAU  5.00e-02 -1.00e+00 -1.00e+00 -1.00e+00
