KIMD   ?    BHN  i S      ? 20230212 0450 14.2900 GAU  2.00e-02 -1.00e+00 -1.00e+00 -1.00e+00
KIMD   ?    BHZ  i P      d 20230212 0450  7.6300 GAU  2.00e-02 -1.00e+00 -1.00e+00 -1.00e+00
TAFL   ?    BHN  i S      ? 20230212 0450  3.6100 GAU  2.00e-02 -1.00e+00 -1.00e+00 -1.00e+00
TAFL   ?    BHZ  i P      u 20230212 0450  1.3700 GAU  2.00e-02 -1.00e+00 -1.00e+00 -1.00e+00
TAFP   ?    BHN  i S      ? 20230212 0450  1.5700 GAU  2.00e-02 -1.00e+00 -1.00e+00 -1.00e+00
TAPA   ?    BHN  i S      ? 20230212 0450  2.9200 GAU  5.00e-02 -1.00e+00 -1.00e+00 -1.00e+00
TAPA   ?    BHZ  i P      d 20230212 0450  1.0500 GAU  2.00e-02 -1.00e+00 -1.00e+00 -1.00e+00
TASE   ?    BHN  i S      ? 20230212 0450  2.0200 GAU  2.00e-02 -1.00e+00 -1.00e+00 -1.00e+00
TASE   ?    BHZ  i P      d 20230212 0450  0.6000 GAU  2.00e-02 -1.00e+00 -1.00e+00 -1.00e+00
TASO   ?    BHZ  i P      d 20230212 0450  1.8000 GAU  2.00e-02 -1.00e+00 -1.00e+00 -1.00e+00
