TAFL   ?    BHE  i S      ? 20230212 2122 35.7500 GAU  2.00e-02 -1.00e+00 -1.00e+00 -1.00e+00
TAFL   ?    BHZ  i P      u 20230212 2122 33.5500 GAU  2.00e-02 -1.00e+00 -1.00e+00 -1.00e+00
TAFP   ?    BHN  i S      ? 20230212 2122 32.6700 GAU  2.00e-02 -1.00e+00 -1.00e+00 -1.00e+00
TAFP   ?    BHN  i S      ? 20230212 2122 34.0400 GAU  2.00e-02 -1.00e+00 -1.00e+00 -1.00e+00
TAPA   ?    BHN  i S      ? 20230212 2122 36.1000 GAU  5.00e-02 -1.00e+00 -1.00e+00 -1.00e+00
TASE   ?    BHN  i S      ? 20230212 2122 34.2100 GAU  2.00e-02 -1.00e+00 -1.00e+00 -1.00e+00
TASE   ?    BHZ  i P      d 20230212 2122 32.8100 GAU  2.00e-02 -1.00e+00 -1.00e+00 -1.00e+00
