KIMD   ?    BHN  i S      ? 20230212 1403 20.7800 GAU  2.00e-02 -1.00e+00 -1.00e+00 -1.00e+00
KIMD   ?    BHZ  i P      d 20230212 1403 13.7400 GAU  2.00e-02 -1.00e+00 -1.00e+00 -1.00e+00
TAFL   ?    BHN  i S      ? 20230212 1403  9.6800 GAU  2.00e-02 -1.00e+00 -1.00e+00 -1.00e+00
TAFL   ?    BHZ  i P      d 20230212 1403  7.1600 GAU  2.00e-02 -1.00e+00 -1.00e+00 -1.00e+00
TAFP   ?    BHE  i S      ? 20230212 1403  6.8400 GAU  2.00e-02 -1.00e+00 -1.00e+00 -1.00e+00
TAFP   ?    BHN  i S      ? 20230212 1403  5.7000 GAU  2.00e-02 -1.00e+00 -1.00e+00 -1.00e+00
TAPA   ?    BHN  i S      ? 20230212 1403  7.2100 GAU  5.00e-02 -1.00e+00 -1.00e+00 -1.00e+00
TAPA   ?    BHN  i S      ? 20230212 1403  9.3500 GAU  2.00e-02 -1.00e+00 -1.00e+00 -1.00e+00
TASE   ?    BHE  i S      ? 20230212 1403  6.6000 GAU  2.00e-02 -1.00e+00 -1.00e+00 -1.00e+00
TASE   ?    BHZ  i P      u 20230212 1403  5.5600 GAU  2.00e-02 -1.00e+00 -1.00e+00 -1.00e+00
TASO   ?    BHN  i S      ? 20230212 1403  8.7400 GAU  2.00e-02 -1.00e+00 -1.00e+00 -1.00e+00
TASO   ?    BHZ  i P      u 20230212 1403  6.7100 GAU  2.00e-02 -1.00e+00 -1.00e+00 -1.00e+00
