TAFL   ?    BHE  i S      ? 20230212 0826 26.6500 GAU  5.00e-02 -1.00e+00 -1.00e+00 -1.00e+00
TAFP   ?    BHE  i S      ? 20230212 0826 23.9500 GAU  2.00e-02 -1.00e+00 -1.00e+00 -1.00e+00
TAFP   ?    BHN  i S      ? 20230212 0826 22.7100 GAU  2.00e-02 -1.00e+00 -1.00e+00 -1.00e+00
TASE   ?    BHE  i S      ? 20230212 0826 23.5900 GAU  2.00e-02 -1.00e+00 -1.00e+00 -1.00e+00
TASE   ?    BHZ  i P      d 20230212 0826 22.5700 GAU  2.00e-02 -1.00e+00 -1.00e+00 -1.00e+00
TASO   ?    BHE  e S      ? 20230212 0826 25.7800 GAU  1.00e-01 -1.00e+00 -1.00e+00 -1.00e+00
