TAFL   ?    BHN  i S      ? 20230212 2233 41.3700 GAU  5.00e-02 -1.00e+00 -1.00e+00 -1.00e+00
TAFP   ?    BHE  i S      ? 20230212 2233 38.6100 GAU  2.00e-02 -1.00e+00 -1.00e+00 -1.00e+00
TAFP   ?    BHN  i S      ? 20230212 2233 37.4200 GAU  2.00e-02 -1.00e+00 -1.00e+00 -1.00e+00
TASE   ?    BHE  i S      ? 20230212 2233 38.2000 GAU  2.00e-02 -1.00e+00 -1.00e+00 -1.00e+00
TASE   ?    BHZ  i P      d 20230212 2233 37.2000 GAU  2.00e-02 -1.00e+00 -1.00e+00 -1.00e+00
TASO   ?    BHN  e S      ? 20230212 2233 39.4800 GAU  1.00e-01 -1.00e+00 -1.00e+00 -1.00e+00
