TAFL   ?    BHZ  i P      u 20230212 0636  5.4100 GAU  2.00e-02 -1.00e+00 -1.00e+00 -1.00e+00
TAFP   ?    BHN  i S      ? 20230212 0636  5.2000 GAU  2.00e-02 -1.00e+00 -1.00e+00 -1.00e+00
TASE   ?    BHN  i S      ? 20230212 0636  5.0200 GAU  2.00e-02 -1.00e+00 -1.00e+00 -1.00e+00
TASE   ?    BHZ  i P      u 20230212 0636  3.9400 GAU  2.00e-02 -1.00e+00 -1.00e+00 -1.00e+00
TASO   ?    BHN  i S      ? 20230212 0636  7.2100 GAU  2.00e-02 -1.00e+00 -1.00e+00 -1.00e+00
