TAFL   ?    BHE  i S      ? 20230212 0518 23.0400 GAU  2.00e-02 -1.00e+00 -1.00e+00 -1.00e+00
TAFL   ?    BHZ  i P      d 20230212 0518 20.7900 GAU  2.00e-02 -1.00e+00 -1.00e+00 -1.00e+00
TAFP   ?    BHE  i S      ? 20230212 0518 21.2800 GAU  2.00e-02 -1.00e+00 -1.00e+00 -1.00e+00
TAFP   ?    BHN  i S      ? 20230212 0518 19.9300 GAU  2.00e-02 -1.00e+00 -1.00e+00 -1.00e+00
TAPA   ?    BHN  i S      ? 20230212 0518 22.1300 GAU  2.00e-02 -1.00e+00 -1.00e+00 -1.00e+00
TAPA   ?    BHZ  i P      u 20230212 0518 20.4100 GAU  2.00e-02 -1.00e+00 -1.00e+00 -1.00e+00
TASE   ?    BHN  i S      ? 20230212 0518 21.8400 GAU  2.00e-02 -1.00e+00 -1.00e+00 -1.00e+00
TASE   ?    BHZ  i P      u 20230212 0518 20.2600 GAU  2.00e-02 -1.00e+00 -1.00e+00 -1.00e+00
TASO   ?    BHE  i S      ? 20230212 0518 24.0900 GAU  5.00e-02 -1.00e+00 -1.00e+00 -1.00e+00
