KIMD   ?    BHE  i S      ? 20230212 1234 48.3000 GAU  2.00e-02 -1.00e+00 -1.00e+00 -1.00e+00
KIMD   ?    BHZ  i P      u 20230212 1234 41.4000 GAU  5.00e-02 -1.00e+00 -1.00e+00 -1.00e+00
TAFL   ?    BHE  i S      ? 20230212 1234 37.1900 GAU  2.00e-02 -1.00e+00 -1.00e+00 -1.00e+00
TAFL   ?    BHZ  i P      d 20230212 1234 34.8100 GAU  2.00e-02 -1.00e+00 -1.00e+00 -1.00e+00
TAFP   ?    BHE  i S      ? 20230212 1234 34.9000 GAU  2.00e-02 -1.00e+00 -1.00e+00 -1.00e+00
TAFP   ?    BHN  i S      ? 20230212 1234 33.6500 GAU  2.00e-02 -1.00e+00 -1.00e+00 -1.00e+00
TAPA   ?    BHE  i S      ? 20230212 1234 37.1100 GAU  2.00e-02 -1.00e+00 -1.00e+00 -1.00e+00
TAPA   ?    BHZ  i P      d 20230212 1234 34.7900 GAU  2.00e-02 -1.00e+00 -1.00e+00 -1.00e+00
TASE   ?    BHE  i S      ? 20230212 1234 34.7100 GAU  2.00e-02 -1.00e+00 -1.00e+00 -1.00e+00
TASE   ?    BHZ  i P      d 20230212 1234 33.5600 GAU  2.00e-02 -1.00e+00 -1.00e+00 -1.00e+00
TASO   ?    BHE  i S      ? 20230212 1234 36.6900 GAU  2.00e-02 -1.00e+00 -1.00e+00 -1.00e+00
TASO   ?    BHZ  i P      d 20230212 1234 34.6200 GAU  2.00e-02 -1.00e+00 -1.00e+00 -1.00e+00
