KIMD   ?    BHN  i S      ? 20230212 1322 58.0300 GAU  2.00e-02 -1.00e+00 -1.00e+00 -1.00e+00
KIMD   ?    BHZ  i P      d 20230212 1322 51.0300 GAU  2.00e-02 -1.00e+00 -1.00e+00 -1.00e+00
TAFL   ?    BHN  i S      ? 20230212 1322 46.9600 GAU  2.00e-02 -1.00e+00 -1.00e+00 -1.00e+00
TAFL   ?    BHZ  i P      d 20230212 1322 44.4400 GAU  2.00e-02 -1.00e+00 -1.00e+00 -1.00e+00
TAFP   ?    BHE  i S      ? 20230212 1322 44.1400 GAU  2.00e-02 -1.00e+00 -1.00e+00 -1.00e+00
TAFP   ?    BHN  i S      ? 20230212 1322 43.0000 GAU  2.00e-02 -1.00e+00 -1.00e+00 -1.00e+00
TAPA   ?    BHN  i S      ? 20230212 1322 46.6400 GAU  2.00e-02 -1.00e+00 -1.00e+00 -1.00e+00
TAPA   ?    BHZ  i P      u 20230212 1322 44.3600 GAU  2.00e-02 -1.00e+00 -1.00e+00 -1.00e+00
TASE   ?    BHN  i S      ? 20230212 1322 43.9100 GAU  2.00e-02 -1.00e+00 -1.00e+00 -1.00e+00
TASE   ?    BHZ  i P      u 20230212 1322 42.8800 GAU  2.00e-02 -1.00e+00 -1.00e+00 -1.00e+00
TASO   ?    BHN  i S      ? 20230212 1322 46.0500 GAU  2.00e-02 -1.00e+00 -1.00e+00 -1.00e+00
TASO   ?    BHZ  i P      u 20230212 1322 44.0100 GAU  2.00e-02 -1.00e+00 -1.00e+00 -1.00e+00
