KIMD   ?    BHN  i S      ? 20230212 0741 45.5600 GAU  2.00e-02 -1.00e+00 -1.00e+00 -1.00e+00
KIMD   ?    BHZ  i P      u 20230212 0741 38.8100 GAU  2.00e-02 -1.00e+00 -1.00e+00 -1.00e+00
KIWB   ?    BHN  i S      ? 20230212 0741 46.6700 GAU  2.00e-02 -1.00e+00 -1.00e+00 -1.00e+00
KIWB   ?    BHZ  i P      u 20230212 0741 39.5100 GAU  2.00e-02 -1.00e+00 -1.00e+00 -1.00e+00
TAFL   ?    BHE  i S      ? 20230212 0741 34.6000 GAU  2.00e-02 -1.00e+00 -1.00e+00 -1.00e+00
TAFL   ?    BHZ  i P      d 20230212 0741 32.2800 GAU  2.00e-02 -1.00e+00 -1.00e+00 -1.00e+00
TAFP   ?    BHE  i S      ? 20230212 0741 32.4500 GAU  2.00e-02 -1.00e+00 -1.00e+00 -1.00e+00
TAFP   ?    BHN  e S      ? 20230212 0741 31.4400 GAU  1.00e-01 -1.00e+00 -1.00e+00 -1.00e+00
TAPA   ?    BHN  i S      ? 20230212 0741 34.2400 GAU  2.00e-02 -1.00e+00 -1.00e+00 -1.00e+00
TAPA   ?    BHZ  i P      d 20230212 0741 32.2800 GAU  2.00e-02 -1.00e+00 -1.00e+00 -1.00e+00
TASE   ?    BHE  i S      ? 20230212 0741 32.4200 GAU  2.00e-02 -1.00e+00 -1.00e+00 -1.00e+00
TASE   ?    BHZ  i P      d 20230212 0741 31.1600 GAU  2.00e-02 -1.00e+00 -1.00e+00 -1.00e+00
TASO   ?    BHE  i S      ? 20230212 0741 34.3900 GAU  2.00e-02 -1.00e+00 -1.00e+00 -1.00e+00
TASO   ?    BHZ  i P      u 20230212 0741 32.3000 GAU  2.00e-02 -1.00e+00 -1.00e+00 -1.00e+00
