TAFL   ?    BHN  i S      ? 20230212 0611 39.3600 GAU  2.00e-02 -1.00e+00 -1.00e+00 -1.00e+00
TAFL   ?    BHZ  i P      d 20230212 0611 36.9100 GAU  2.00e-02 -1.00e+00 -1.00e+00 -1.00e+00
TAFP   ?    BHN  i S      ? 20230212 0611 35.7300 GAU  2.00e-02 -1.00e+00 -1.00e+00 -1.00e+00
TAFP   ?    BHN  i S      ? 20230212 0611 36.8900 GAU  2.00e-02 -1.00e+00 -1.00e+00 -1.00e+00
TASE   ?    BHE  i S      ? 20230212 0611 36.6700 GAU  2.00e-02 -1.00e+00 -1.00e+00 -1.00e+00
TASE   ?    BHZ  i P      u 20230212 0611 35.5200 GAU  2.00e-02 -1.00e+00 -1.00e+00 -1.00e+00
TASO   ?    BHN  i S      ? 20230212 0611 38.8200 GAU  5.00e-02 -1.00e+00 -1.00e+00 -1.00e+00
