TAFL   ?    BHN  i S      ? 20230212 0452 59.8700 GAU  2.00e-02 -1.00e+00 -1.00e+00 -1.00e+00
TAFL   ?    BHZ  i P      u 20230212 0452 57.5500 GAU  2.00e-02 -1.00e+00 -1.00e+00 -1.00e+00
TAFP   ?    BHN  e S      ? 20230212 0452 56.5600 GAU  1.00e-01 -1.00e+00 -1.00e+00 -1.00e+00
TAFP   ?    BHN  e S      ? 20230212 0452 57.7800 GAU  1.00e-01 -1.00e+00 -1.00e+00 -1.00e+00
TASE   ?    BHE  i S      ? 20230212 0452 58.1900 GAU  2.00e-02 -1.00e+00 -1.00e+00 -1.00e+00
TASE   ?    BHZ  i P      d 20230212 0452 56.7500 GAU  2.00e-02 -1.00e+00 -1.00e+00 -1.00e+00
TASO   ?    BHZ  i P      d 20230212 0452 57.9700 GAU  2.00e-02 -1.00e+00 -1.00e+00 -1.00e+00
