TAFL   ?    BHN  i S      ? 20230212 1630 40.9900 GAU  2.00e-02 -1.00e+00 -1.00e+00 -1.00e+00
TAFL   ?    BHZ  i P      d 20230212 1630 38.4700 GAU  2.00e-02 -1.00e+00 -1.00e+00 -1.00e+00
TAFP   ?    BHN  i S      ? 20230212 1630 37.0300 GAU  2.00e-02 -1.00e+00 -1.00e+00 -1.00e+00
TANO   ?    BHN  e S      ? 20230212 1630 40.7800 GAU  1.00e-01 -1.00e+00 -1.00e+00 -1.00e+00
TAPA   ?    BHN  i S      ? 20230212 1630 38.5000 GAU  2.00e-02 -1.00e+00 -1.00e+00 -1.00e+00
TAPA   ?    BHN  i S      ? 20230212 1630 40.6900 GAU  2.00e-02 -1.00e+00 -1.00e+00 -1.00e+00
TASE   ?    BHE  i S      ? 20230212 1630 38.0200 GAU  2.00e-02 -1.00e+00 -1.00e+00 -1.00e+00
TASE   ?    BHZ  i P      u 20230212 1630 36.9200 GAU  2.00e-02 -1.00e+00 -1.00e+00 -1.00e+00
TASO   ?    BHZ  i P      u 20230212 1630 38.0500 GAU  2.00e-02 -1.00e+00 -1.00e+00 -1.00e+00
