<?xml version='1.0' encoding='utf-8'?>
<q:quakeml xmlns="http://quakeml.org/xmlns/bed/1.2" xmlns:q="http://quakeml.org/xmlns/quakeml/1.2" xmlns:ns0="http://anss.org/xmlns/catalog/0.1">
  <eventParameters publicID="smi:local/edb80085-f634-44f1-a7f6-9691386c4ac2">
    <event publicID="quakeml:av.anss.org/Event/AV/91760241" ns0:datasource="av" ns0:dataid="av91760241" ns0:eventsource="av" ns0:eventid="91760241">
      <preferredOriginID>quakeml:av.anss.org/Origin/AV/96116363</preferredOriginID>
      <preferredMagnitudeID>quakeml:av.anss.org/Netmag/AV/92116533</preferredMagnitudeID>
      <type>earthquake</type>
      <creationInfo>
        <agencyID>AV</agencyID>
        <creationTime>2023-02-14T10:28:36.000000Z</creationTime>
        <version>1</version>
      </creationInfo>
      <origin publicID="quakeml:av.anss.org/Origin/AV/96116363" ns0:datasource="av" ns0:dataid="av91760241" ns0:eventsource="av" ns0:eventid="91760241">
        <time>
          <value>2023-02-12T22:58:05.050000Z</value>
        </time>
        <latitude>
          <value>51.858</value>
        </latitude>
        <longitude>
          <value>-177.971833333333</value>
        </longitude>
        <depth>
          <value>5050.0</value>
          <uncertainty>1020.0</uncertainty>
        </depth>
        <depthType>from location</depthType>
        <timeFixed>false</timeFixed>
        <epicenterFixed>false</epicenterFixed>
        <methodID>smi:av.anss.org/origin/HYP2000</methodID>
        <quality>
          <associatedPhaseCount>10</associatedPhaseCount>
          <usedPhaseCount>10</usedPhaseCount>
          <associatedStationCount>5</associatedStationCount>
          <usedStationCount>5</usedStationCount>
          <standardError>0.14</standardError>
          <azimuthalGap>125.0</azimuthalGap>
        </quality>
        <type>hypocenter</type>
        <evaluationMode>manual</evaluationMode>
        <evaluationStatus>final</evaluationStatus>
        <creationInfo>
          <agencyID>AV</agencyID>
          <creationTime>2023-02-14T10:25:48.000000Z</creationTime>
        </creationInfo>
        <originUncertainty>
          <preferredDescription>confidence ellipsoid</preferredDescription>
          <horizontalUncertainty>440.0</horizontalUncertainty>
          <confidenceLevel>95.0</confidenceLevel>
          <confidenceEllipsoid>
            <semiMajorAxisLength>2544.0</semiMajorAxisLength>
            <semiMinorAxisLength>696.0</semiMinorAxisLength>
            <semiIntermediateAxisLength>1080.0</semiIntermediateAxisLength>
            <majorAxisPlunge>75.0</majorAxisPlunge>
            <majorAxisAzimuth>345.0</majorAxisAzimuth>
            <majorAxisRotation>43.0</majorAxisRotation>
          </confidenceEllipsoid>
        </originUncertainty>
        <arrival publicID="quakeml:av.anss.org/AssocArO/AV/103234698">
          <pickID>quakeml:av.anss.org/Arrival/AV/103234698</pickID>
          <phase>P</phase>
          <timeCorrection>0.0</timeCorrection>
          <azimuth>348.543079138789</azimuth>
          <takeoffAngle>
            <value>134.0</value>
          </takeoffAngle>
          <timeResidual>-0.01</timeResidual>
          <timeWeight>0.1</timeWeight>
          <creationInfo>
            <agencyID>AV</agencyID>
            <creationTime>2023-02-14T10:28:36.000000Z</creationTime>
          </creationInfo>
        </arrival>
        <arrival publicID="quakeml:av.anss.org/AssocArO/AV/103234703">
          <pickID>quakeml:av.anss.org/Arrival/AV/103234703</pickID>
          <phase>S</phase>
          <timeCorrection>0.0</timeCorrection>
          <azimuth>348.543079138789</azimuth>
          <takeoffAngle>
            <value>134.0</value>
          </takeoffAngle>
          <timeResidual>0.14</timeResidual>
          <timeWeight>0.1</timeWeight>
          <creationInfo>
            <agencyID>AV</agencyID>
            <creationTime>2023-02-14T10:28:36.000000Z</creationTime>
          </creationInfo>
        </arrival>
        <arrival publicID="quakeml:av.anss.org/AssocArO/AV/103234708">
          <pickID>quakeml:av.anss.org/Arrival/AV/103234708</pickID>
          <phase>P</phase>
          <timeCorrection>0.0</timeCorrection>
          <azimuth>239.878149091181</azimuth>
          <takeoffAngle>
            <value>131.0</value>
          </takeoffAngle>
          <timeResidual>-0.14</timeResidual>
          <timeWeight>0.1</timeWeight>
          <creationInfo>
            <agencyID>AV</agencyID>
            <creationTime>2023-02-14T10:28:36.000000Z</creationTime>
          </creationInfo>
        </arrival>
        <arrival publicID="quakeml:av.anss.org/AssocArO/AV/103234713">
          <pickID>quakeml:av.anss.org/Arrival/AV/103234713</pickID>
          <phase>S</phase>
          <timeCorrection>0.0</timeCorrection>
          <azimuth>239.878149091181</azimuth>
          <takeoffAngle>
            <value>131.0</value>
          </takeoffAngle>
          <timeResidual>-0.16</timeResidual>
          <timeWeight>0.1</timeWeight>
          <creationInfo>
            <agencyID>AV</agencyID>
            <creationTime>2023-02-14T10:28:36.000000Z</creationTime>
          </creationInfo>
        </arrival>
        <arrival publicID="quakeml:av.anss.org/AssocArO/AV/103234718">
          <pickID>quakeml:av.anss.org/Arrival/AV/103234718</pickID>
          <phase>P</phase>
          <timeCorrection>0.0</timeCorrection>
          <azimuth>114.134202485208</azimuth>
          <takeoffAngle>
            <value>104.0</value>
          </takeoffAngle>
          <timeResidual>-0.15</timeResidual>
          <timeWeight>0.1</timeWeight>
          <creationInfo>
            <agencyID>AV</agencyID>
            <creationTime>2023-02-14T10:28:36.000000Z</creationTime>
          </creationInfo>
        </arrival>
        <arrival publicID="quakeml:av.anss.org/AssocArO/AV/103234723">
          <pickID>quakeml:av.anss.org/Arrival/AV/103234723</pickID>
          <phase>S</phase>
          <timeCorrection>0.0</timeCorrection>
          <azimuth>114.134202485208</azimuth>
          <takeoffAngle>
            <value>104.0</value>
          </takeoffAngle>
          <timeResidual>0.02</timeResidual>
          <timeWeight>0.1</timeWeight>
          <creationInfo>
            <agencyID>AV</agencyID>
            <creationTime>2023-02-14T10:28:36.000000Z</creationTime>
          </creationInfo>
        </arrival>
        <arrival publicID="quakeml:av.anss.org/AssocArO/AV/103234728">
          <pickID>quakeml:av.anss.org/Arrival/AV/103234728</pickID>
          <phase>P</phase>
          <timeCorrection>0.0</timeCorrection>
          <azimuth>267.689843737903</azimuth>
          <takeoffAngle>
            <value>104.0</value>
          </takeoffAngle>
          <timeResidual>-0.04</timeResidual>
          <timeWeight>0.1</timeWeight>
          <creationInfo>
            <agencyID>AV</agencyID>
            <creationTime>2023-02-14T10:28:36.000000Z</creationTime>
          </creationInfo>
        </arrival>
        <arrival publicID="quakeml:av.anss.org/AssocArO/AV/103234733">
          <pickID>quakeml:av.anss.org/Arrival/AV/103234733</pickID>
          <phase>S</phase>
          <timeCorrection>0.0</timeCorrection>
          <azimuth>267.689843737903</azimuth>
          <takeoffAngle>
            <value>104.0</value>
          </takeoffAngle>
          <timeResidual>0.19</timeResidual>
          <timeWeight>0.1</timeWeight>
          <creationInfo>
            <agencyID>AV</agencyID>
            <creationTime>2023-02-14T10:28:36.000000Z</creationTime>
          </creationInfo>
        </arrival>
        <arrival publicID="quakeml:av.anss.org/AssocArO/AV/103234738">
          <pickID>quakeml:av.anss.org/Arrival/AV/103234738</pickID>
          <phase>P</phase>
          <timeCorrection>0.0</timeCorrection>
          <azimuth>156.485284512234</azimuth>
          <takeoffAngle>
            <value>101.0</value>
          </takeoffAngle>
          <timeResidual>-0.1</timeResidual>
          <timeWeight>0.1</timeWeight>
          <creationInfo>
            <agencyID>AV</agencyID>
            <creationTime>2023-02-14T10:28:36.000000Z</creationTime>
          </creationInfo>
        </arrival>
        <arrival publicID="quakeml:av.anss.org/AssocArO/AV/103234743">
          <pickID>quakeml:av.anss.org/Arrival/AV/103234743</pickID>
          <phase>S</phase>
          <timeCorrection>0.0</timeCorrection>
          <azimuth>156.485284512234</azimuth>
          <takeoffAngle>
            <value>101.0</value>
          </takeoffAngle>
          <timeResidual>0.26</timeResidual>
          <timeWeight>0.1</timeWeight>
          <creationInfo>
            <agencyID>AV</agencyID>
            <creationTime>2023-02-14T10:28:36.000000Z</creationTime>
          </creationInfo>
        </arrival>
      </origin>
      <magnitude publicID="quakeml:av.anss.org/Netmag/AV/92116533">
        <mag>
          <value>1.0</value>
          <uncertainty>0.15369074588059</uncertainty>
        </mag>
        <type>Ml</type>
        <originID>quakeml:av.anss.org/Origin/AV/96116363</originID>
        <methodID>smi:av.anss.org/magnitude/RichterMl2</methodID>
        <stationCount>5</stationCount>
        <azimuthalGap>125.591123346419</azimuthalGap>
        <evaluationMode>manual</evaluationMode>
        <evaluationStatus>reviewed</evaluationStatus>
        <stationMagnitudeContribution>
          <stationMagnitudeID>quakeml:av.anss.org/AssocAmM/AV/8039198</stationMagnitudeID>
          <weight>1.0</weight>
          <residual>-0.16</residual>
        </stationMagnitudeContribution>
        <stationMagnitudeContribution>
          <stationMagnitudeID>quakeml:av.anss.org/AssocAmM/AV/8039203</stationMagnitudeID>
          <weight>1.0</weight>
          <residual>0.29</residual>
        </stationMagnitudeContribution>
        <stationMagnitudeContribution>
          <stationMagnitudeID>quakeml:av.anss.org/AssocAmM/AV/8039158</stationMagnitudeID>
          <weight>1.0</weight>
          <residual>-0.16</residual>
        </stationMagnitudeContribution>
        <stationMagnitudeContribution>
          <stationMagnitudeID>quakeml:av.anss.org/AssocAmM/AV/8039213</stationMagnitudeID>
          <weight>1.0</weight>
          <residual>-0.06</residual>
        </stationMagnitudeContribution>
        <stationMagnitudeContribution>
          <stationMagnitudeID>quakeml:av.anss.org/AssocAmM/AV/8039193</stationMagnitudeID>
          <weight>0.0</weight>
          <residual>-0.48</residual>
        </stationMagnitudeContribution>
        <stationMagnitudeContribution>
          <stationMagnitudeID>quakeml:av.anss.org/AssocAmM/AV/8039163</stationMagnitudeID>
          <weight>1.0</weight>
          <residual>0.09</residual>
        </stationMagnitudeContribution>
        <stationMagnitudeContribution>
          <stationMagnitudeID>quakeml:av.anss.org/AssocAmM/AV/8039168</stationMagnitudeID>
          <weight>1.0</weight>
          <residual>0.02</residual>
        </stationMagnitudeContribution>
        <stationMagnitudeContribution>
          <stationMagnitudeID>quakeml:av.anss.org/AssocAmM/AV/8039188</stationMagnitudeID>
          <weight>1.0</weight>
          <residual>-0.14</residual>
        </stationMagnitudeContribution>
        <stationMagnitudeContribution>
          <stationMagnitudeID>quakeml:av.anss.org/AssocAmM/AV/8039178</stationMagnitudeID>
          <weight>1.0</weight>
          <residual>0.27</residual>
        </stationMagnitudeContribution>
        <stationMagnitudeContribution>
          <stationMagnitudeID>quakeml:av.anss.org/AssocAmM/AV/8039173</stationMagnitudeID>
          <weight>1.0</weight>
          <residual>0.35</residual>
        </stationMagnitudeContribution>
        <stationMagnitudeContribution>
          <stationMagnitudeID>quakeml:av.anss.org/AssocAmM/AV/8039218</stationMagnitudeID>
          <weight>1.0</weight>
          <residual>-0.06</residual>
        </stationMagnitudeContribution>
        <stationMagnitudeContribution>
          <stationMagnitudeID>quakeml:av.anss.org/AssocAmM/AV/8039208</stationMagnitudeID>
          <weight>1.0</weight>
          <residual>-0.0</residual>
        </stationMagnitudeContribution>
        <stationMagnitudeContribution>
          <stationMagnitudeID>quakeml:av.anss.org/AssocAmM/AV/8039183</stationMagnitudeID>
          <weight>1.0</weight>
          <residual>-0.16</residual>
        </stationMagnitudeContribution>
        <stationMagnitudeContribution>
          <stationMagnitudeID>quakeml:av.anss.org/AssocAmM/AV/8039223</stationMagnitudeID>
          <weight>1.0</weight>
          <residual>0.23</residual>
        </stationMagnitudeContribution>
        <creationInfo>
          <agencyID>AV</agencyID>
          <creationTime>2023-02-14T10:28:36.000000Z</creationTime>
        </creationInfo>
      </magnitude>
      <magnitude publicID="quakeml:av.anss.org/Netmag/AV/92116538">
        <mag>
          <value>1.96</value>
          <uncertainty>0.0219570887792955</uncertainty>
        </mag>
        <type>Md</type>
        <originID>quakeml:av.anss.org/Origin/AV/96116363</originID>
        <methodID>smi:av.anss.org/magnitude/HypoinvMd</methodID>
        <stationCount>4</stationCount>
        <azimuthalGap>206.444358747305</azimuthalGap>
        <evaluationMode>manual</evaluationMode>
        <evaluationStatus>reviewed</evaluationStatus>
        <stationMagnitudeContribution>
          <stationMagnitudeID>quakeml:av.anss.org/AssocCoM/AV/91015513</stationMagnitudeID>
          <weight>1.0</weight>
          <residual>0.03</residual>
        </stationMagnitudeContribution>
        <stationMagnitudeContribution>
          <stationMagnitudeID>quakeml:av.anss.org/AssocCoM/AV/91015518</stationMagnitudeID>
          <weight>1.0</weight>
          <residual>-0.02</residual>
        </stationMagnitudeContribution>
        <stationMagnitudeContribution>
          <stationMagnitudeID>quakeml:av.anss.org/AssocCoM/AV/91015523</stationMagnitudeID>
          <weight>1.0</weight>
          <residual>0.25</residual>
        </stationMagnitudeContribution>
        <stationMagnitudeContribution>
          <stationMagnitudeID>quakeml:av.anss.org/AssocCoM/AV/91015528</stationMagnitudeID>
          <weight>1.0</weight>
          <residual>-0.02</residual>
        </stationMagnitudeContribution>
        <creationInfo>
          <agencyID>AV</agencyID>
          <creationTime>2023-02-14T10:28:36.000000Z</creationTime>
        </creationInfo>
      </magnitude>
      <stationMagnitude publicID="quakeml:av.anss.org/AssocCoM/AV/91015513">
        <originID>quakeml:av.anss.org/Origin/AV/96116363</originID>
        <mag>
          <value>1.99</value>
        </mag>
        <type>MD</type>
        <amplitudeID>quakeml:av.anss.org/Coda/AV/91015513</amplitudeID>
        <waveformID networkCode="AV" stationCode="TASE" locationCode="" channelCode="BHZ"></waveformID>
      </stationMagnitude>
      <stationMagnitude publicID="quakeml:av.anss.org/AssocCoM/AV/91015518">
        <originID>quakeml:av.anss.org/Origin/AV/96116363</originID>
        <mag>
          <value>1.94</value>
        </mag>
        <type>MD</type>
        <amplitudeID>quakeml:av.anss.org/Coda/AV/91015518</amplitudeID>
        <waveformID networkCode="AV" stationCode="TAPA" locationCode="" channelCode="BHZ"></waveformID>
      </stationMagnitude>
      <stationMagnitude publicID="quakeml:av.anss.org/AssocCoM/AV/91015523">
        <originID>quakeml:av.anss.org/Origin/AV/96116363</originID>
        <mag>
          <value>2.21</value>
        </mag>
        <type>MD</type>
        <amplitudeID>quakeml:av.anss.org/Coda/AV/91015523</amplitudeID>
        <waveformID networkCode="AV" stationCode="TASO" locationCode="" channelCode="BHZ"></waveformID>
      </stationMagnitude>
      <stationMagnitude publicID="quakeml:av.anss.org/AssocCoM/AV/91015528">
        <originID>quakeml:av.anss.org/Origin/AV/96116363</originID>
        <mag>
          <value>1.94</value>
        </mag>
        <type>MD</type>
        <amplitudeID>quakeml:av.anss.org/Coda/AV/91015528</amplitudeID>
        <waveformID networkCode="AV" stationCode="TAFL" locationCode="" channelCode="BHZ"></waveformID>
      </stationMagnitude>
      <stationMagnitude publicID="quakeml:av.anss.org/AssocAmM/AV/8039158">
        <originID>quakeml:av.anss.org/Origin/AV/96116363</originID>
        <mag>
          <value>0.84</value>
        </mag>
        <type>ML</type>
        <amplitudeID>quakeml:av.anss.org/Amp/AV/8039158</amplitudeID>
        <waveformID networkCode="AV" stationCode="TAFP" locationCode="" channelCode="BHN"></waveformID>
      </stationMagnitude>
      <stationMagnitude publicID="quakeml:av.anss.org/AssocAmM/AV/8039163">
        <originID>quakeml:av.anss.org/Origin/AV/96116363</originID>
        <mag>
          <value>1.09</value>
        </mag>
        <type>ML</type>
        <amplitudeID>quakeml:av.anss.org/Amp/AV/8039163</amplitudeID>
        <waveformID networkCode="AV" stationCode="TAFP" locationCode="" channelCode="BHE"></waveformID>
      </stationMagnitude>
      <stationMagnitude publicID="quakeml:av.anss.org/AssocAmM/AV/8039168">
        <originID>quakeml:av.anss.org/Origin/AV/96116363</originID>
        <mag>
          <value>1.02</value>
        </mag>
        <type>ML</type>
        <amplitudeID>quakeml:av.anss.org/Amp/AV/8039168</amplitudeID>
        <waveformID networkCode="AV" stationCode="TASE" locationCode="" channelCode="BHZ"></waveformID>
      </stationMagnitude>
      <stationMagnitude publicID="quakeml:av.anss.org/AssocAmM/AV/8039173">
        <originID>quakeml:av.anss.org/Origin/AV/96116363</originID>
        <mag>
          <value>1.35</value>
        </mag>
        <type>ML</type>
        <amplitudeID>quakeml:av.anss.org/Amp/AV/8039173</amplitudeID>
        <waveformID networkCode="AV" stationCode="TASE" locationCode="" channelCode="BHN"></waveformID>
      </stationMagnitude>
      <stationMagnitude publicID="quakeml:av.anss.org/AssocAmM/AV/8039178">
        <originID>quakeml:av.anss.org/Origin/AV/96116363</originID>
        <mag>
          <value>1.27</value>
        </mag>
        <type>ML</type>
        <amplitudeID>quakeml:av.anss.org/Amp/AV/8039178</amplitudeID>
        <waveformID networkCode="AV" stationCode="TASE" locationCode="" channelCode="BHE"></waveformID>
      </stationMagnitude>
      <stationMagnitude publicID="quakeml:av.anss.org/AssocAmM/AV/8039183">
        <originID>quakeml:av.anss.org/Origin/AV/96116363</originID>
        <mag>
          <value>0.84</value>
        </mag>
        <type>ML</type>
        <amplitudeID>quakeml:av.anss.org/Amp/AV/8039183</amplitudeID>
        <waveformID networkCode="AV" stationCode="TAPA" locationCode="" channelCode="BHZ"></waveformID>
      </stationMagnitude>
      <stationMagnitude publicID="quakeml:av.anss.org/AssocAmM/AV/8039188">
        <originID>quakeml:av.anss.org/Origin/AV/96116363</originID>
        <mag>
          <value>0.86</value>
        </mag>
        <type>ML</type>
        <amplitudeID>quakeml:av.anss.org/Amp/AV/8039188</amplitudeID>
        <waveformID networkCode="AV" stationCode="TAPA" locationCode="" channelCode="BHN"></waveformID>
      </stationMagnitude>
      <stationMagnitude publicID="quakeml:av.anss.org/AssocAmM/AV/8039193">
        <originID>quakeml:av.anss.org/Origin/AV/96116363</originID>
        <mag>
          <value>0.52</value>
        </mag>
        <type>ML</type>
        <amplitudeID>quakeml:av.anss.org/Amp/AV/8039193</amplitudeID>
        <waveformID networkCode="AV" stationCode="TAPA" locationCode="" channelCode="BHE"></waveformID>
      </stationMagnitude>
      <stationMagnitude publicID="quakeml:av.anss.org/AssocAmM/AV/8039198">
        <originID>quakeml:av.anss.org/Origin/AV/96116363</originID>
        <mag>
          <value>0.84</value>
        </mag>
        <type>ML</type>
        <amplitudeID>quakeml:av.anss.org/Amp/AV/8039198</amplitudeID>
