SPBG   ?    BHN  i S      ? 20241014 2223 54.8200 GAU  3.00e-02 -1.00e+00 -1.00e+00 -1.00e+00
SPBG   ?    BHZ  i P      u 20241014 2223 50.7800 GAU  3.00e-02 -1.00e+00 -1.00e+00 -1.00e+00
SPBL   ?    BHN  i S      ? 20241014 2223 55.6400 GAU  3.00e-02 -1.00e+00 -1.00e+00 -1.00e+00
SPBL   ?    BHZ  i P      u 20241014 2223 51.8800 GAU  3.00e-02 -1.00e+00 -1.00e+00 -1.00e+00
SPCG   ?    BHE  i S      ? 20241014 2223 54.1400 GAU  3.00e-02 -1.00e+00 -1.00e+00 -1.00e+00
SPCG   ?    BHZ  i P      u 20241014 2223 50.6500 GAU  3.00e-02 -1.00e+00 -1.00e+00 -1.00e+00
SPCL   ?    BHE  i S      ? 20241014 2223 54.5400 GAU  3.00e-02 -1.00e+00 -1.00e+00 -1.00e+00
SPCL   ?    BHZ  i P      d 20241014 2223 50.9200 GAU  3.00e-02 -1.00e+00 -1.00e+00 -1.00e+00
SPCP   ?    BHN  i S      ? 20241014 2223 54.2000 GAU  3.00e-02 -1.00e+00 -1.00e+00 -1.00e+00
SPCP   ?    BHZ  i P      u 20241014 2223 50.7800 GAU  3.00e-02 -1.00e+00 -1.00e+00 -1.00e+00
SPNN   ?    BHN  i S      ? 20241014 2223 57.7400 GAU  3.00e-02 -1.00e+00 -1.00e+00 -1.00e+00
SPNN   ?    BHZ  i P      ? 20241014 2223 53.4200 GAU  6.00e-02 -1.00e+00 -1.00e+00 -1.00e+00
SPU    ?    BHE  i S      ? 20241014 2223 53.9400 GAU  6.00e-02 -1.00e+00 -1.00e+00 -1.00e+00
SPU    ?    BHZ  i P      ? 20241014 2223 50.6200 GAU  6.00e-02 -1.00e+00 -1.00e+00 -1.00e+00
SPWE   ?    BHE  i S      ? 20241014 2223 55.4400 GAU  3.00e-02 -1.00e+00 -1.00e+00 -1.00e+00
SPWE   ?    BHZ  i P      u 20241014 2223 52.1200 GAU  3.00e-02 -1.00e+00 -1.00e+00 -1.00e+00
STLK   ?    BHN  i S      ? 20241014 2223 58.3600 GAU  3.00e-02 -1.00e+00 -1.00e+00 -1.00e+00
