SPBG   ?    BHE  i S      ? 20241014 2054 31.7000 GAU  3.00e-02 -1.00e+00 -1.00e+00 -1.00e+00
SPBG   ?    BHZ  i P      u 20241014 2054 30.2000 GAU  3.00e-02 -1.00e+00 -1.00e+00 -1.00e+00
SPBL   ?    BHN  i S      ? 20241014 2054 34.7400 GAU  3.00e-02 -1.00e+00 -1.00e+00 -1.00e+00
SPBL   ?    BHZ  i P      u 20241014 2054 31.9200 GAU  3.00e-02 -1.00e+00 -1.00e+00 -1.00e+00
SPCG   ?    BHN  i S      ? 20241014 2054 33.0800 GAU  3.00e-02 -1.00e+00 -1.00e+00 -1.00e+00
SPCG   ?    BHZ  i P      u 20241014 2054 30.9600 GAU  3.00e-02 -1.00e+00 -1.00e+00 -1.00e+00
SPCL   ?    BHN  i S      ? 20241014 2054 33.6800 GAU  3.00e-02 -1.00e+00 -1.00e+00 -1.00e+00
SPCL   ?    BHZ  i P      u 20241014 2054 31.3000 GAU  3.00e-02 -1.00e+00 -1.00e+00 -1.00e+00
SPCN   ?    BHN  i S      ? 20241014 2054 33.0600 GAU  6.00e-02 -1.00e+00 -1.00e+00 -1.00e+00
SPCN   ?    BHZ  i P      ? 20241014 2054 31.3700 GAU  6.00e-02 -1.00e+00 -1.00e+00 -1.00e+00
SPCP   ?    BHE  i S      ? 20241014 2054 32.1400 GAU  3.00e-02 -1.00e+00 -1.00e+00 -1.00e+00
SPCP   ?    BHZ  i P      u 20241014 2054 30.4100 GAU  3.00e-02 -1.00e+00 -1.00e+00 -1.00e+00
SPNN   ?    BHN  i S      ? 20241014 2054 34.9000 GAU  3.00e-02 -1.00e+00 -1.00e+00 -1.00e+00
SPNN   ?    BHZ  i P      u 20241014 2054 32.0200 GAU  3.00e-02 -1.00e+00 -1.00e+00 -1.00e+00
SPU    ?    BHN  i S      ? 20241014 2054 35.6000 GAU  3.00e-02 -1.00e+00 -1.00e+00 -1.00e+00
SPU    ?    BHZ  i P      u 20241014 2054 32.2400 GAU  3.00e-02 -1.00e+00 -1.00e+00 -1.00e+00
SPWE   ?    BHN  i S      ? 20241014 2054 33.4000 GAU  3.00e-02 -1.00e+00 -1.00e+00 -1.00e+00
SPWE   ?    BHZ  i P      u 20241014 2054 31.1600 GAU  3.00e-02 -1.00e+00 -1.00e+00 -1.00e+00
STLK   ?    BHN  i S      ? 20241014 2054 37.2800 GAU  6.00e-02 -1.00e+00 -1.00e+00 -1.00e+00
STLK   ?    BHZ  i P      u 20241014 2054 33.3200 GAU  3.00e-02 -1.00e+00 -1.00e+00 -1.00e+00
