SPBG   ?    BHE  i S      ? 20241014 1447 58.4800 GAU  3.00e-02 -1.00e+00 -1.00e+00 -1.00e+00
SPBG   ?    BHZ  i P      d 20241014 1447 57.0400 GAU  3.00e-02 -1.00e+00 -1.00e+00 -1.00e+00
SPBL   ?    BHZ  i P      ? 20241014 1448  0.9400 GAU  6.00e-02 -1.00e+00 -1.00e+00 -1.00e+00
SPCG   ?    BHN  i S      ? 20241014 1448  2.0200 GAU  3.00e-02 -1.00e+00 -1.00e+00 -1.00e+00
SPCG   ?    BHZ  i P      d 20241014 1447 59.3800 GAU  3.00e-02 -1.00e+00 -1.00e+00 -1.00e+00
SPCL   ?    BHN  i S      ? 20241014 1447 59.2200 GAU  3.00e-02 -1.00e+00 -1.00e+00 -1.00e+00
SPCL   ?    BHZ  i P      u 20241014 1447 58.3800 GAU  3.00e-02 -1.00e+00 -1.00e+00 -1.00e+00
SPCP   ?    BHE  i S      ? 20241014 1448  0.3000 GAU  3.00e-02 -1.00e+00 -1.00e+00 -1.00e+00
SPCP   ?    BHZ  i P      u 20241014 1447 58.3200 GAU  3.00e-02 -1.00e+00 -1.00e+00 -1.00e+00
SPNN   ?    BHZ  i P      d 20241014 1448  0.1800 GAU  3.00e-02 -1.00e+00 -1.00e+00 -1.00e+00
SPU    ?    BHZ  i P      ? 20241014 1447 59.9000 GAU  6.00e-02 -1.00e+00 -1.00e+00 -1.00e+00
SPWE   ?    BHE  i S      ? 20241014 1448  0.6800 GAU  6.00e-02 -1.00e+00 -1.00e+00 -1.00e+00
SPWE   ?    BHZ  i P      d 20241014 1447 58.5400 GAU  3.00e-02 -1.00e+00 -1.00e+00 -1.00e+00
