SPBG   ?    BHE  i S      ? 20241014 2258 57.7200 GAU  3.00e-02 -1.00e+00 -1.00e+00 -1.00e+00
SPBG   ?    BHZ  i P      u 20241014 2258 56.5400 GAU  3.00e-02 -1.00e+00 -1.00e+00 -1.00e+00
SPBL   ?    BHN  i S      ? 20241014 2259  1.5800 GAU  3.00e-02 -1.00e+00 -1.00e+00 -1.00e+00
SPBL   ?    BHZ  i P      u 20241014 2258 58.7000 GAU  3.00e-02 -1.00e+00 -1.00e+00 -1.00e+00
SPCG   ?    BHZ  i P      u 20241014 2258 57.2400 GAU  3.00e-02 -1.00e+00 -1.00e+00 -1.00e+00
SPCL   ?    BHN  i S      ? 20241014 2258 59.6000 GAU  3.00e-02 -1.00e+00 -1.00e+00 -1.00e+00
SPCL   ?    BHZ  i P      u 20241014 2258 57.5200 GAU  3.00e-02 -1.00e+00 -1.00e+00 -1.00e+00
SPCN   ?    BHZ  i P      d 20241014 2258 57.3800 GAU  3.00e-02 -1.00e+00 -1.00e+00 -1.00e+00
SPCP   ?    BHE  i S      ? 20241014 2258 57.5800 GAU  3.00e-02 -1.00e+00 -1.00e+00 -1.00e+00
SPCP   ?    BHZ  i P      u 20241014 2258 56.4000 GAU  3.00e-02 -1.00e+00 -1.00e+00 -1.00e+00
SPNN   ?    BHN  i S      ? 20241014 2259  2.8800 GAU  6.00e-02 -1.00e+00 -1.00e+00 -1.00e+00
SPNN   ?    BHZ  i P      u 20241014 2258 59.3600 GAU  3.00e-02 -1.00e+00 -1.00e+00 -1.00e+00
SPU    ?    BHN  i S      ? 20241014 2259  0.7200 GAU  3.00e-02 -1.00e+00 -1.00e+00 -1.00e+00
SPU    ?    BHZ  i P      u 20241014 2258 58.2000 GAU  3.00e-02 -1.00e+00 -1.00e+00 -1.00e+00
SPWE   ?    BHN  i S      ? 20241014 2259  0.5600 GAU  3.00e-02 -1.00e+00 -1.00e+00 -1.00e+00
SPWE   ?    BHZ  i P      d 20241014 2258 58.0400 GAU  3.00e-02 -1.00e+00 -1.00e+00 -1.00e+00
