SPBG   ?    BHE  i S      ? 20241014 1402 37.2400 GAU  3.00e-02 -1.00e+00 -1.00e+00 -1.00e+00
SPBG   ?    BHZ  i P      u 20241014 1402 36.1000 GAU  3.00e-02 -1.00e+00 -1.00e+00 -1.00e+00
SPBL   ?    BHN  i S      ? 20241014 1402 41.1600 GAU  3.00e-02 -1.00e+00 -1.00e+00 -1.00e+00
SPBL   ?    BHZ  i P      u 20241014 1402 38.3200 GAU  3.00e-02 -1.00e+00 -1.00e+00 -1.00e+00
SPCG   ?    BHN  i S      ? 20241014 1402 38.5000 GAU  3.00e-02 -1.00e+00 -1.00e+00 -1.00e+00
SPCG   ?    BHZ  i P      u 20241014 1402 36.8200 GAU  3.00e-02 -1.00e+00 -1.00e+00 -1.00e+00
SPCL   ?    BHN  i S      ? 20241014 1402 38.8400 GAU  3.00e-02 -1.00e+00 -1.00e+00 -1.00e+00
SPCL   ?    BHZ  i P      d 20241014 1402 37.0000 GAU  3.00e-02 -1.00e+00 -1.00e+00 -1.00e+00
SPCP   ?    BHN  i S      ? 20241014 1402 36.7600 GAU  3.00e-02 -1.00e+00 -1.00e+00 -1.00e+00
SPCP   ?    BHZ  i P      u 20241014 1402 35.9000 GAU  3.00e-02 -1.00e+00 -1.00e+00 -1.00e+00
SPNN   ?    BHN  i S      ? 20241014 1402 42.4600 GAU  6.00e-02 -1.00e+00 -1.00e+00 -1.00e+00
SPU    ?    BHE  i S      ? 20241014 1402 40.0000 GAU  3.00e-02 -1.00e+00 -1.00e+00 -1.00e+00
SPU    ?    BHZ  i P      ? 20241014 1402 37.8800 GAU  6.00e-02 -1.00e+00 -1.00e+00 -1.00e+00
SPWE   ?    BHE  i S      ? 20241014 1402 40.1400 GAU  3.00e-02 -1.00e+00 -1.00e+00 -1.00e+00
SPWE   ?    BHZ  i P      u 20241014 1402 37.6600 GAU  3.00e-02 -1.00e+00 -1.00e+00 -1.00e+00
