SPBG   ?    BHE  i S      ? 20241014 1602 24.0600 GAU  3.00e-02 -1.00e+00 -1.00e+00 -1.00e+00
SPBG   ?    BHZ  i P      d 20241014 1602 22.9600 GAU  3.00e-02 -1.00e+00 -1.00e+00 -1.00e+00
SPCG   ?    BHN  i S      ? 20241014 1602 25.3000 GAU  3.00e-02 -1.00e+00 -1.00e+00 -1.00e+00
SPCG   ?    BHZ  i P      u 20241014 1602 23.7600 GAU  3.00e-02 -1.00e+00 -1.00e+00 -1.00e+00
SPCL   ?    BHN  i S      ? 20241014 1602 25.1200 GAU  3.00e-02 -1.00e+00 -1.00e+00 -1.00e+00
SPCL   ?    BHZ  i P      d 20241014 1602 23.5200 GAU  3.00e-02 -1.00e+00 -1.00e+00 -1.00e+00
SPCN   ?    BHN  i S      ? 20241014 1602 24.4000 GAU  3.00e-02 -1.00e+00 -1.00e+00 -1.00e+00
SPCN   ?    BHZ  i P      d 20241014 1602 23.0800 GAU  3.00e-02 -1.00e+00 -1.00e+00 -1.00e+00
SPNN   ?    BHN  i S      ? 20241014 1602 29.8200 GAU  3.00e-02 -1.00e+00 -1.00e+00 -1.00e+00
SPNN   ?    BHZ  i P      u 20241014 1602 26.3000 GAU  3.00e-02 -1.00e+00 -1.00e+00 -1.00e+00
SPU    ?    BHN  i S      ? 20241014 1602 26.2400 GAU  3.00e-02 -1.00e+00 -1.00e+00 -1.00e+00
SPU    ?    BHZ  i P      ? 20241014 1602 24.1200 GAU  3.00e-02 -1.00e+00 -1.00e+00 -1.00e+00
SPWE   ?    BHE  i S      ? 20241014 1602 26.9600 GAU  6.00e-02 -1.00e+00 -1.00e+00 -1.00e+00
SPWE   ?    BHZ  i P      u 20241014 1602 24.5600 GAU  3.00e-02 -1.00e+00 -1.00e+00 -1.00e+00
