SPBG   ?    BHE  i S      ? 20241014 0941 41.3800 GAU  6.00e-02 -1.00e+00 -1.00e+00 -1.00e+00
SPBG   ?    BHZ  i P      u 20241014 0941 38.6400 GAU  3.00e-02 -1.00e+00 -1.00e+00 -1.00e+00
SPBL   ?    BHE  i S      ? 20241014 0941 43.3000 GAU  3.00e-02 -1.00e+00 -1.00e+00 -1.00e+00
SPBL   ?    BHZ  i P      u 20241014 0941 39.6800 GAU  3.00e-02 -1.00e+00 -1.00e+00 -1.00e+00
SPCG   ?    BHE  i S      ? 20241014 0941 41.9400 GAU  3.00e-02 -1.00e+00 -1.00e+00 -1.00e+00
SPCG   ?    BHZ  i P      d 20241014 0941 38.7600 GAU  3.00e-02 -1.00e+00 -1.00e+00 -1.00e+00
SPCL   ?    BHN  i S      ? 20241014 0941 41.5400 GAU  3.00e-02 -1.00e+00 -1.00e+00 -1.00e+00
SPCL   ?    BHZ  i P      u 20241014 0941 38.5600 GAU  3.00e-02 -1.00e+00 -1.00e+00 -1.00e+00
SPCN   ?    BHZ  i P      d 20241014 0941 38.4600 GAU  3.00e-02 -1.00e+00 -1.00e+00 -1.00e+00
SPCP   ?    BHZ  i P      d 20241014 0941 38.5200 GAU  3.00e-02 -1.00e+00 -1.00e+00 -1.00e+00
SPNN   ?    BHN  i S      ? 20241014 0941 45.2000 GAU  3.00e-02 -1.00e+00 -1.00e+00 -1.00e+00
SPNN   ?    BHZ  i P      u 20241014 0941 40.5200 GAU  3.00e-02 -1.00e+00 -1.00e+00 -1.00e+00
SPU    ?    BHN  i S      ? 20241014 0941 41.7600 GAU  6.00e-02 -1.00e+00 -1.00e+00 -1.00e+00
SPU    ?    BHZ  i P      u 20241014 0941 38.6400 GAU  3.00e-02 -1.00e+00 -1.00e+00 -1.00e+00
SPWE   ?    BHN  i S      ? 20241014 0941 43.0800 GAU  3.00e-02 -1.00e+00 -1.00e+00 -1.00e+00
SPWE   ?    BHZ  i P      u 20241014 0941 39.5600 GAU  3.00e-02 -1.00e+00 -1.00e+00 -1.00e+00
STLK   ?    BHE  i S      ? 20241014 0941 46.0200 GAU  3.00e-02 -1.00e+00 -1.00e+00 -1.00e+00
STLK   ?    BHZ  i P      u 20241014 0941 41.2400 GAU  3.00e-02 -1.00e+00 -1.00e+00 -1.00e+00
