SPBG   ?    BHE  i S      ? 20241014 0033 38.9000 GAU  3.00e-02 -1.00e+00 -1.00e+00 -1.00e+00
SPBG   ?    BHZ  i P      u 20241014 0033 37.6800 GAU  3.00e-02 -1.00e+00 -1.00e+00 -1.00e+00
SPBL   ?    BHN  i S      ? 20241014 0033 42.5800 GAU  3.00e-02 -1.00e+00 -1.00e+00 -1.00e+00
SPBL   ?    BHZ  i P      u 20241014 0033 39.8200 GAU  3.00e-02 -1.00e+00 -1.00e+00 -1.00e+00
SPCG   ?    BHN  i S      ? 20241014 0033 40.1000 GAU  3.00e-02 -1.00e+00 -1.00e+00 -1.00e+00
SPCG   ?    BHZ  i P      u 20241014 0033 38.3600 GAU  3.00e-02 -1.00e+00 -1.00e+00 -1.00e+00
SPCL   ?    BHN  i S      ? 20241014 0033 40.6200 GAU  3.00e-02 -1.00e+00 -1.00e+00 -1.00e+00
SPCL   ?    BHZ  i P      u 20241014 0033 38.6600 GAU  3.00e-02 -1.00e+00 -1.00e+00 -1.00e+00
SPCN   ?    BHZ  i P      u 20241014 0033 38.3000 GAU  3.00e-02 -1.00e+00 -1.00e+00 -1.00e+00
SPCP   ?    BHE  i S      ? 20241014 0033 38.6800 GAU  3.00e-02 -1.00e+00 -1.00e+00 -1.00e+00
SPCP   ?    BHZ  i P      u 20241014 0033 37.5200 GAU  3.00e-02 -1.00e+00 -1.00e+00 -1.00e+00
SPNN   ?    BHN  i S      ? 20241014 0033 43.8400 GAU  3.00e-02 -1.00e+00 -1.00e+00 -1.00e+00
SPNN   ?    BHZ  i P      u 20241014 0033 40.5000 GAU  3.00e-02 -1.00e+00 -1.00e+00 -1.00e+00
SPU    ?    BHN  i S      ? 20241014 0033 41.8000 GAU  3.00e-02 -1.00e+00 -1.00e+00 -1.00e+00
SPU    ?    BHZ  i P      u 20241014 0033 39.3400 GAU  3.00e-02 -1.00e+00 -1.00e+00 -1.00e+00
SPWE   ?    BHN  i S      ? 20241014 0033 41.7200 GAU  6.00e-02 -1.00e+00 -1.00e+00 -1.00e+00
SPWE   ?    BHZ  i P      u 20241014 0033 39.2000 GAU  3.00e-02 -1.00e+00 -1.00e+00 -1.00e+00
STLK   ?    BHN  i S      ? 20241014 0033 45.9200 GAU  6.00e-02 -1.00e+00 -1.00e+00 -1.00e+00
STLK   ?    BHZ  i P      u 20241014 0033 41.5800 GAU  3.00e-02 -1.00e+00 -1.00e+00 -1.00e+00
