SPBG   ?    BHZ  i P      ? 20241014 0938 35.5600 GAU  6.00e-02 -1.00e+00 -1.00e+00 -1.00e+00
SPBL   ?    BHE  i S      ? 20241014 0938 32.6000 GAU  3.00e-02 -1.00e+00 -1.00e+00 -1.00e+00
SPBL   ?    BHZ  i P      d 20241014 0938 31.2800 GAU  3.00e-02 -1.00e+00 -1.00e+00 -1.00e+00
SPCG   ?    BHN  i S      ? 20241014 0938 36.6400 GAU  3.00e-02 -1.00e+00 -1.00e+00 -1.00e+00
SPCG   ?    BHZ  i P      d 20241014 0938 33.2800 GAU  3.00e-02 -1.00e+00 -1.00e+00 -1.00e+00
SPCN   ?    BHZ  i P      ? 20241014 0938 35.2600 GAU  6.00e-02 -1.00e+00 -1.00e+00 -1.00e+00
SPNN   ?    BHE  i S      ? 20241014 0938 42.8200 GAU  6.00e-02 -1.00e+00 -1.00e+00 -1.00e+00
STLK   ?    BHN  i S      ? 20241014 0938 31.3400 GAU  6.00e-02 -1.00e+00 -1.00e+00 -1.00e+00
STLK   ?    BHZ  i P      u 20241014 0938 30.5000 GAU  3.00e-02 -1.00e+00 -1.00e+00 -1.00e+00
