SPBG   ?    BHZ  i P      u 20241014 0603 49.2200 GAU  3.00e-02 -1.00e+00 -1.00e+00 -1.00e+00
SPBL   ?    BHE  i S      ? 20241014 0603 46.2200 GAU  3.00e-02 -1.00e+00 -1.00e+00 -1.00e+00
SPBL   ?    BHZ  i P      u 20241014 0603 44.8200 GAU  3.00e-02 -1.00e+00 -1.00e+00 -1.00e+00
SPCG   ?    BHN  i S      ? 20241014 0603 50.1400 GAU  6.00e-02 -1.00e+00 -1.00e+00 -1.00e+00
SPCG   ?    BHZ  i P      ? 20241014 0603 46.7200 GAU  3.00e-02 -1.00e+00 -1.00e+00 -1.00e+00
SPNN   ?    BHE  i S      ? 20241014 0603 56.3600 GAU  6.00e-02 -1.00e+00 -1.00e+00 -1.00e+00
SPNN   ?    BHZ  i P      ? 20241014 0603 51.4400 GAU  6.00e-02 -1.00e+00 -1.00e+00 -1.00e+00
STLK   ?    BHN  i S      ? 20241014 0603 45.5600 GAU  3.00e-02 -1.00e+00 -1.00e+00 -1.00e+00
STLK   ?    BHZ  i P      d 20241014 0603 44.0000 GAU  3.00e-02 -1.00e+00 -1.00e+00 -1.00e+00
