NLLOC "./loc/volcano.20241014.225856.grid0" "LOCATED" "Location completed."
PUBLIC_ID None
SIGNATURE "MARN+VDAP   obs:./obs/210046894.obs   NLLoc:v7.00.13(17Jan2022)   run:03Aug2025 05h11m24"
COMMENT "Santa Ana, El Salvador"
GRID  100 100 30  -50 -50 -3  1 1 1 PROB_DENSITY
SEARCH OCTREE nInitial 4400 nEvaluated 20024 smallestNodeSide 0.038672/0.038672/0.020597 oct_tree_integral 5.354920e-01 scatter_volume 5.354920e-01
HYPOCENTER  x -0.287305 y 0.21543 z 1.06783  OT 54.6514  ix -1 iy -1 iz -1 MAXIMUM_LIKELIHOOD
GEOGRAPHIC  OT 2024 10 14  22 58 54.651429  Lat 61.300933 Long -152.260461 Depth 1.067827
QUALITY  Pmax 4.655e+21 MFmin 21.9216 MFmax 22.4155 RMS 0.0333708 Nphs 10 Gap 222.697 Dist 6.878 Mamp -9.90 0 Mdur -9.90 0
VPVSRATIO  VpVsRatio 1.78421  Npair 4  Diff 1.7
STATISTICS  ExpectX 0.093966 Y 0.509809 Z 2.580800  CovXX 0.399111 XY -0.112658 XZ 0.611243 YY 0.50357 YZ 0.250676 ZZ 2.23012 EllAz1  242.1 Dip1  17.3343 Len1  0.660502 Az2  332.719 Dip2  1.98118 Len2  1.42026 Len3  2.933494e+00
STAT_GEOG  ExpectLat 61.303575 Long -152.253347 Depth 2.580800
TRANSFORM  SDC LatOrig 61.299000  LongOrig -152.255100  RotCW 0.000000
QML_OriginQuality  assocPhCt 16  usedPhCt 10  assocStaCt -1  usedStaCt 6  depthPhCt -1  stdErr 0.0333708  azGap 222.697  secAzGap 252.958  gtLevel -  minDist 6.878 maxDist 12.7847 medDist 11.0133
QML_OriginUncertainty  horUnc -1  minHorUnc 0.867454  maxHorUnc 1.15052  azMaxHorUnc 147.436
QML_ConfidenceEllipsoid  semiMajorAxisLength 2.93349  semiMinorAxisLength 0.660502  semiIntermediateAxisLength 1.42026  majorAxisPlunge 72.5457  majorAxisAzimuth 69.035  majorAxisRotation 275.436
FOCALMECH  Hyp  61.300933 -152.260461 1.067827 Mech  0 0 0 mf  0 nObs -1
PHASE ID Ins Cmp On Pha  FM Date     HrMn   Sec     Err  ErrMag    Coda      Amp       Per  >   TTpred    Res       Weight    StaLoc(X  Y         Z)        SDist    SAzim  RAz  RDip RQual    Tcorr 
SPCP   ?    BHZ  i P      u 20241014 2258   56.4000 GAU  3.00e-02 -1.00e+00 -1.00e+00 -1.00e+00 >    1.7458    0.0028    1.8184    5.3414   -3.7373   -1.6400    6.8780 125.08 123.5 105.4  9     0.0000
SPCP   ?    BHE  i S      ? 20241014 2258   57.5800 GAU  3.00e-02 -1.00e+00 -1.00e+00 -1.00e+00 >    2.9329   -0.0043    1.8195    5.3414   -3.7373   -1.6400    6.8780 125.08 123.5 105.4  9     0.0000
SPBG   ?    BHZ  i P      u 20241014 2258   56.5400 GAU  3.00e-02 -1.00e+00 -1.00e+00 -1.00e+00 >    1.8442    0.0443    1.5517   -6.2803   -4.4466   -1.0870    7.5928 232.12 233.6  97.9  8     0.0000
SPBG   ?    BHE  i S      ? 20241014 2258   57.7200 GAU  3.00e-02 -1.00e+00 -1.00e+00 -1.00e+00 >    3.0983   -0.0297    1.7135   -6.2803   -4.4466   -1.0870    7.5928 232.12 233.6  97.9  8     0.0000
SPCN   ?    BHZ  i P      d 20241014 2258   57.3800 GAU  3.00e-02 -1.00e+00 -1.00e+00 -1.00e+00 >    2.2430    0.4855    0.0000    3.8137   -8.3946   -0.7333    9.5368 154.53 155.5  85.9  9     0.0000
SPCL   ?    BHZ  i P      u 20241014 2258   57.5200 GAU  3.00e-02 -1.00e+00 -1.00e+00 -1.00e+00 >    2.9263   -0.0577    1.4267   -4.5526  -11.5234   -1.2740   12.4897 199.97 199.7  80.1  9     0.0000
SPCL   ?    BHN  i S      ? 20241014 2258   59.6000 GAU  3.00e-02 -1.00e+00 -1.00e+00 -1.00e+00 >    4.9162    0.0324    1.6702   -4.5526  -11.5234   -1.2740   12.4897 199.97 199.7  80.1  9     0.0000
SPCG   ?    BHZ  i P      u 20241014 2258   57.2400 GAU  3.00e-02 -1.00e+00 -1.00e+00 -1.00e+00 >    2.9880   -0.3995    0.0001   12.4523   -0.8581   -1.3290   12.7847  94.82  96.5  79.9  9     0.0000
SPBL   ?    BHZ  i P      u 20241014 2258   58.7000 GAU  3.00e-02 -1.00e+00 -1.00e+00 -1.00e+00 >    7.2809   -3.2323    0.0000  -34.2389    8.6258   -0.9270   34.9778 283.91 284.3  55.1  9     0.0000
SPBL   ?    BHN  i S      ? 20241014 2259    1.5800 GAU  3.00e-02 -1.00e+00 -1.00e+00 -1.00e+00 >   12.2319   -5.3033    0.0000  -34.2389    8.6258   -0.9270   34.9778 283.91 284.3  55.1  9     0.0000
SPWE   ?    BHZ  i P      d 20241014 2258   58.0400 GAU  3.00e-02 -1.00e+00 -1.00e+00 -1.00e+00 >    0.0000    0.0000    0.0000 -100000000000000000000.0000 -100000000000000000000.0000 -100000000000000000000.0000    0.0000   0.00 359.0  -1.0  0     0.0000
SPU    ?    BHZ  i P      u 20241014 2258   58.2000 GAU  3.00e-02 -1.00e+00 -1.00e+00 -1.00e+00 >    0.0000    0.0000    0.0000 -100000000000000000000.0000 -100000000000000000000.0000 -100000000000000000000.0000    0.0000   0.00 359.0  -1.0  0     0.0000
SPNN   ?    BHZ  i P      u 20241014 2258   59.3600 GAU  3.00e-02 -1.00e+00 -1.00e+00 -1.00e+00 >    0.0000    0.0000    0.0000 -100000000000000000000.0000 -100000000000000000000.0000 -100000000000000000000.0000    0.0000   0.00 359.0  -1.0  0     0.0000
SPWE   ?    BHN  i S      ? 20241014 2259    0.5600 GAU  3.00e-02 -1.00e+00 -1.00e+00 -1.00e+00 >    0.0000    0.0000    0.0000 -100000000000000000000.0000 -100000000000000000000.0000 -100000000000000000000.0000    0.0000   0.00 359.0  -1.0  0     0.0000
SPU    ?    BHN  i S      ? 20241014 2259    0.7200 GAU  3.00e-02 -1.00e+00 -1.00e+00 -1.00e+00 >    0.0000    0.0000    0.0000 -100000000000000000000.0000 -100000000000000000000.0000 -100000000000000000000.0000    0.0000   0.00 359.0  -1.0  0     0.0000
SPNN   ?    BHN  i S      ? 20241014 2259    2.8800 GAU  6.00e-02 -1.00e+00 -1.00e+00 -1.00e+00 >    0.0000    0.0000    0.0000 -100000000000000000000.0000 -100000000000000000000.0000 -100000000000000000000.0000    0.0000   0.00 359.0  -1.0  0     0.0000
END_PHASE
END_NLLOC

