NLLOC "./loc/volcano.20241014.144808.grid0" "LOCATED" "Location completed."
PUBLIC_ID None
SIGNATURE "MARN+VDAP   obs:./obs/210046789.obs   NLLoc:v7.00.13(17Jan2022)   run:03Aug2025 05h11m24"
COMMENT "Santa Ana, El Salvador"
GRID  100 100 30  -50 -50 -3  1 1 1 PROB_DENSITY
SEARCH OCTREE nInitial 4400 nEvaluated 20000 smallestNodeSide 0.154688/0.154688/0.082386 oct_tree_integral 4.954395e+00 scatter_volume 4.954395e+00
HYPOCENTER  x -8.31172 y 3.13516 z 4.95028  OT 5.90835  ix -1 iy -1 iz -1 MAXIMUM_LIKELIHOOD
GEOGRAPHIC  OT 2024 10 14  14 48 5.908354  Lat 61.327132 Long -152.410245 Depth 4.950284
QUALITY  Pmax 1.29287e+14 MFmin 15.2456 MFmax 15.9743 RMS 0.0532639 Nphs 7 Gap 295.27 Dist 7.84924 Mamp -9.90 0 Mdur -9.90 0
VPVSRATIO  VpVsRatio 2.57499  Npair 3  Diff 2.1
STATISTICS  ExpectX -7.837410 Y 0.101743 Z 5.740878  CovXX 5.85542 XY -7.74563 XZ 2.31595 YY 25.0351 YZ -6.97181 ZZ 6.25023 EllAz1  68.0746 Dip1  8.21027 Len1  3.30691 Az2  313.499 Dip2  70.8671 Len2  3.75885 Len3  1.029768e+01
STAT_GEOG  ExpectLat 61.299913 Long -152.401329 Depth 5.740878
TRANSFORM  SDC LatOrig 61.299000  LongOrig -152.255100  RotCW 0.000000
QML_OriginQuality  assocPhCt 10  usedPhCt 7  assocStaCt -1  usedStaCt 4  depthPhCt -1  stdErr 0.0532639  azGap 295.27  secAzGap 295.885  gtLevel -  minDist 7.84924 maxDist 21.1445 medDist 15.2091
QML_OriginUncertainty  horUnc -1  minHorUnc 2.67798  maxHorUnc 7.99229  azMaxHorUnc 160.536
QML_ConfidenceEllipsoid  semiMajorAxisLength 10.2977  semiMinorAxisLength 3.30691  semiIntermediateAxisLength 3.75885  majorAxisPlunge 17.1583  majorAxisAzimuth 160.628  majorAxisRotation 169.629
FOCALMECH  Hyp  61.327132 -152.410245 4.950284 Mech  0 0 0 mf  0 nObs -1
PHASE ID Ins Cmp On Pha  FM Date     HrMn   Sec     Err  ErrMag    Coda      Amp       Per  >   TTpred    Res       Weight    StaLoc(X  Y         Z)        SDist    SAzim  RAz  RDip RQual    Tcorr 
SPBG   ?    BHZ  i P      u 20241014 1448    8.0400 GAU  3.00e-02 -1.00e+00 -1.00e+00 -1.00e+00 >    2.1000    0.0316    1.3302   -6.2803   -4.4466   -1.0870    7.8492 165.00 164.7 115.6  9     0.0000
SPBG   ?    BHE  i S      ? 20241014 1448    9.4200 GAU  3.00e-02 -1.00e+00 -1.00e+00 -1.00e+00 >    3.5281   -0.0164    1.3670   -6.2803   -4.4466   -1.0870    7.8492 165.00 164.7 115.6  9     0.0000
SPCL   ?    BHZ  i P      u 20241014 1448    9.3600 GAU  3.00e-02 -1.00e+00 -1.00e+00 -1.00e+00 >    3.4388    0.0129    1.3978   -4.5526  -11.5234   -1.2740   15.1329 165.62 165.2  98.0  9     0.0000
SPCP   ?    BHZ  i P      u 20241014 1448    9.6000 GAU  3.00e-02 -1.00e+00 -1.00e+00 -1.00e+00 >    3.5143    0.1773    0.2821    5.3414   -3.7373   -1.6400   15.2853 116.72 115.6  98.2  9     0.0000
SPCP   ?    BHN  i S      ? 20241014 1448   11.8200 GAU  3.00e-02 -1.00e+00 -1.00e+00 -1.00e+00 >    5.9040    0.0076    1.3597    5.3414   -3.7373   -1.6400   15.2853 116.72 115.6  98.2  9     0.0000
SPCG   ?    BHZ  i P      u 20241014 1448   10.4000 GAU  3.00e-02 -1.00e+00 -1.00e+00 -1.00e+00 >    4.5348   -0.0432    1.1929   12.4523   -0.8581   -1.3290   21.1445 100.89 101.7  90.1  9     0.0000
SPCG   ?    BHN  i S      ? 20241014 1448   13.8800 GAU  3.00e-02 -1.00e+00 -1.00e+00 -1.00e+00 >    7.6185    0.3531    0.0704   12.4523   -0.8581   -1.3290   21.1445 100.89 101.7  90.1  9     0.0000
SPWE   ?    BHZ  i P      u 20241014 1448    9.5600 GAU  3.00e-02 -1.00e+00 -1.00e+00 -1.00e+00 >    0.0000    0.0000    0.0000 -100000000000000000000.0000 -100000000000000000000.0000 -100000000000000000000.0000    0.0000   0.00 359.0  -1.0  0     0.0000
SPU    ?    BHZ  i P      u 20241014 1448   10.9400 GAU  3.00e-02 -1.00e+00 -1.00e+00 -1.00e+00 >    0.0000    0.0000    0.0000 -100000000000000000000.0000 -100000000000000000000.0000 -100000000000000000000.0000    0.0000   0.00 359.0  -1.0  0     0.0000
SPNN   ?    BHZ  i P      u 20241014 1448   11.1800 GAU  3.00e-02 -1.00e+00 -1.00e+00 -1.00e+00 >    0.0000    0.0000    0.0000 -100000000000000000000.0000 -100000000000000000000.0000 -100000000000000000000.0000    0.0000   0.00 359.0  -1.0  0     0.0000
END_PHASE
END_NLLOC

