NLLOC "./loc/volcano.20241014.140235.grid0" "LOCATED" "Location completed."
PUBLIC_ID None
SIGNATURE "MARN+VDAP   obs:./obs/210046759.obs   NLLoc:v7.00.13(17Jan2022)   run:03Aug2025 05h11m24"
COMMENT "Santa Ana, El Salvador"
GRID  100 100 30  -50 -50 -3  1 1 1 PROB_DENSITY
SEARCH OCTREE nInitial 4400 nEvaluated 20016 smallestNodeSide 0.077344/0.077344/0.041193 oct_tree_integral 1.312983e+00 scatter_volume 1.312983e+00
HYPOCENTER  x -0.0359375 y -1.58281 z -2.25852  OT 34.446  ix -1 iy -1 iz -1 MAXIMUM_LIKELIHOOD
GEOGRAPHIC  OT 2024 10 14  14 02 34.446019  Lat 61.284797 Long -152.255770 Depth -2.258523
QUALITY  Pmax 4.74527e+21 MFmin 21.7443 MFmax 22.0472 RMS 0.0332286 Nphs 10 Gap 201.316 Dist 5.79293 Mamp -9.90 0 Mdur -9.90 0
VPVSRATIO  VpVsRatio 1.7666  Npair 5  Diff 1.98
STATISTICS  ExpectX 3.105240 Y -4.673622 Z 1.958405  CovXX 6.02575 XY -6.88159 XZ 3.1527 YY 8.53006 YZ -2.29035 ZZ 6.10002 EllAz1  233.071 Dip1  10.7982 Len1  0.597946 Az2  348.077 Dip2  65.7152 Len2  4.11418 Len3  7.458624e+00
STAT_GEOG  ExpectLat 61.257063 Long -152.197203 Depth 1.958405
TRANSFORM  SDC LatOrig 61.299000  LongOrig -152.255100  RotCW 0.000000
QML_OriginQuality  assocPhCt 15  usedPhCt 10  assocStaCt -1  usedStaCt 5  depthPhCt -1  stdErr 0.0332286  azGap 201.316  secAzGap 201.316  gtLevel -  minDist 5.79293 maxDist 12.5092 medDist 10.9186
QML_OriginUncertainty  horUnc -1  minHorUnc 0.807245  maxHorUnc 5.72946  azMaxHorUnc 140.156
QML_ConfidenceEllipsoid  semiMajorAxisLength 7.45862  semiMinorAxisLength 0.597946  semiIntermediateAxisLength 4.11418  majorAxisPlunge 21.4767  majorAxisAzimuth 138.768  majorAxisRotation 15.686
FOCALMECH  Hyp  61.284797 -152.255770 -2.258523 Mech  0 0 0 mf  0 nObs -1
PHASE ID Ins Cmp On Pha  FM Date     HrMn   Sec     Err  ErrMag    Coda      Amp       Per  >   TTpred    Res       Weight    StaLoc(X  Y         Z)        SDist    SAzim  RAz  RDip RQual    Tcorr 
SPCP   ?    BHZ  i P      u 20241014 1402   35.9000 GAU  3.00e-02 -1.00e+00 -1.00e+00 -1.00e+00 >    1.3896    0.0644    1.3561    5.3414   -3.7373   -1.6400    5.7929 111.83  40.0 200.0  0     0.0000
SPCP   ?    BHN  i S      ? 20241014 1402   36.7600 GAU  3.00e-02 -1.00e+00 -1.00e+00 -1.00e+00 >    2.3345   -0.0205    1.7489    5.3414   -3.7373   -1.6400    5.7929 111.83  40.0 200.0  0     0.0000
SPBG   ?    BHZ  i P      u 20241014 1402   36.1000 GAU  3.00e-02 -1.00e+00 -1.00e+00 -1.00e+00 >    1.6609   -0.0069    1.8086   -6.2803   -4.4466   -1.0870    6.8697 245.36  40.0 200.0  0     0.0000
SPBG   ?    BHE  i S      ? 20241014 1402   37.2400 GAU  3.00e-02 -1.00e+00 -1.00e+00 -1.00e+00 >    2.7903    0.0036    1.8208   -6.2803   -4.4466   -1.0870    6.8697 245.36  40.0 200.0  0     0.0000
SPCL   ?    BHZ  i P      d 20241014 1402   37.0000 GAU  3.00e-02 -1.00e+00 -1.00e+00 -1.00e+00 >    2.5989   -0.0450    1.5297   -4.5526  -11.5234   -1.2740   10.9186 204.44  40.0 200.0  0     0.0000
SPCL   ?    BHN  i S      ? 20241014 1402   38.8400 GAU  3.00e-02 -1.00e+00 -1.00e+00 -1.00e+00 >    4.3662    0.0278    1.7356   -4.5526  -11.5234   -1.2740   10.9186 204.44  40.0 200.0  0     0.0000
SPCG   ?    BHZ  i P      u 20241014 1402   36.8200 GAU  3.00e-02 -1.00e+00 -1.00e+00 -1.00e+00 >    2.9598   -0.5858    0.0001   12.4523   -0.8581   -1.3290   12.5092  86.68  40.0 200.0  0     0.0000
SPCG   ?    BHN  i S      ? 20241014 1402   38.5000 GAU  3.00e-02 -1.00e+00 -1.00e+00 -1.00e+00 >    4.9725   -0.9185    0.0001   12.4523   -0.8581   -1.3290   12.5092  86.68  40.0 200.0  0     0.0000
SPBL   ?    BHZ  i P      u 20241014 1402   38.3200 GAU  3.00e-02 -1.00e+00 -1.00e+00 -1.00e+00 >    7.8940   -4.0200    0.0000  -34.2389    8.6258   -0.9270   35.6940 286.62  40.0 200.0  0     0.0000
SPBL   ?    BHN  i S      ? 20241014 1402   41.1600 GAU  3.00e-02 -1.00e+00 -1.00e+00 -1.00e+00 >   13.2620   -6.5480    0.0000  -34.2389    8.6258   -0.9270   35.6940 286.62  40.0 200.0  0     0.0000
SPWE   ?    BHZ  i P      u 20241014 1402   37.6600 GAU  3.00e-02 -1.00e+00 -1.00e+00 -1.00e+00 >    0.0000    0.0000    0.0000 -100000000000000000000.0000 -100000000000000000000.0000 -100000000000000000000.0000    0.0000   0.00 359.0  -1.0  0     0.0000
SPU    ?    BHZ  i P      ? 20241014 1402   37.8800 GAU  6.00e-02 -1.00e+00 -1.00e+00 -1.00e+00 >    0.0000    0.0000    0.0000 -100000000000000000000.0000 -100000000000000000000.0000 -100000000000000000000.0000    0.0000   0.00 359.0  -1.0  0     0.0000
SPU    ?    BHE  i S      ? 20241014 1402   40.0000 GAU  3.00e-02 -1.00e+00 -1.00e+00 -1.00e+00 >    0.0000    0.0000    0.0000 -100000000000000000000.0000 -100000000000000000000.0000 -100000000000000000000.0000    0.0000   0.00 359.0  -1.0  0     0.0000
SPWE   ?    BHE  i S      ? 20241014 1402   40.1400 GAU  3.00e-02 -1.00e+00 -1.00e+00 -1.00e+00 >    0.0000    0.0000    0.0000 -100000000000000000000.0000 -100000000000000000000.0000 -100000000000000000000.0000    0.0000   0.00 359.0  -1.0  0     0.0000
SPNN   ?    BHN  i S      ? 20241014 1402   42.4600 GAU  6.00e-02 -1.00e+00 -1.00e+00 -1.00e+00 >    0.0000    0.0000    0.0000 -100000000000000000000.0000 -100000000000000000000.0000 -100000000000000000000.0000    0.0000   0.00 359.0  -1.0  0     0.0000
END_PHASE
END_NLLOC

