NLLOC "./loc/volcano.20241014.205430.grid0" "LOCATED" "Location completed."
PUBLIC_ID None
SIGNATURE "MARN+VDAP   obs:./obs/210046869.obs   NLLoc:v7.00.13(17Jan2022)   run:03Aug2025 05h11m24"
COMMENT "Santa Ana, El Salvador"
GRID  100 100 30  -50 -50 -3  1 1 1 PROB_DENSITY
SEARCH OCTREE nInitial 4400 nEvaluated 20016 smallestNodeSide 0.077344/0.077344/0.041193 oct_tree_integral 1.137467e+00 scatter_volume 1.127091e+00
HYPOCENTER  x -1.81484 y 3.59922 z 4.29119  OT 27.8581  ix -1 iy -1 iz -1 MAXIMUM_LIKELIHOOD
GEOGRAPHIC  OT 2024 10 14  20 54 27.858135  Lat 61.331296 Long -152.288978 Depth 4.291193
QUALITY  Pmax 7.3331e+26 MFmin 26.1438 MFmax 26.3225 RMS 0.0488895 Nphs 12 Gap 258.32 Dist 9.20196 Mamp -9.90 0 Mdur -9.90 0
VPVSRATIO  VpVsRatio 1.71137  Npair 6  Diff 1.32
STATISTICS  ExpectX -1.223375 Y 3.537869 Z 5.405572  CovXX 1.04598 XY -0.763525 XZ 1.85483 YY 0.949471 YZ -1.38211 ZZ 4.08621 EllAz1  70.8712 Dip1  -18.2072 Len1  0.691373 Az2  349.649 Dip2  24.8878 Len2  1.24221 Len3  4.409896e+00
STAT_GEOG  ExpectLat 61.330745 Long -152.277937 Depth 5.405572
TRANSFORM  SDC LatOrig 61.299000  LongOrig -152.255100  RotCW 0.000000
QML_OriginQuality  assocPhCt 20  usedPhCt 12  assocStaCt -1  usedStaCt 6  depthPhCt -1  stdErr 0.0488895  azGap 258.32  secAzGap 258.32  gtLevel -  minDist 9.20196 maxDist 15.3684 medDist 14.098
QML_OriginUncertainty  horUnc -1  minHorUnc 0.731546  maxHorUnc 2.01355  azMaxHorUnc 133.192
QML_ConfidenceEllipsoid  semiMajorAxisLength 4.4099  semiMinorAxisLength 0.691373  semiIntermediateAxisLength 1.24221  majorAxisPlunge 58.3888  majorAxisAzimuth 128.567  majorAxisRotation 121.25
FOCALMECH  Hyp  61.331296 -152.288978 4.291193 Mech  0 0 0 mf  0 nObs -1
PHASE ID Ins Cmp On Pha  FM Date     HrMn   Sec     Err  ErrMag    Coda      Amp       Per  >   TTpred    Res       Weight    StaLoc(X  Y         Z)        SDist    SAzim  RAz  RDip RQual    Tcorr 
SPBG   ?    BHZ  i P      u 20241014 2054   30.2000 GAU  3.00e-02 -1.00e+00 -1.00e+00 -1.00e+00 >    2.2914    0.0505    1.7289   -6.2803   -4.4466   -1.0870    9.2020 209.03 207.4 106.5  9     0.0000
SPBG   ?    BHE  i S      ? 20241014 2054   31.7000 GAU  3.00e-02 -1.00e+00 -1.00e+00 -1.00e+00 >    3.8495   -0.0076    1.9598   -6.2803   -4.4466   -1.0870    9.2020 209.03 207.4 106.5  9     0.0000
SPCP   ?    BHZ  i P      u 20241014 2054   30.4100 GAU  3.00e-02 -1.00e+00 -1.00e+00 -1.00e+00 >    2.5511    0.0007    1.9834    5.3414   -3.7373   -1.6400   10.2488 135.71 136.1 105.5  9     0.0000
SPCP   ?    BHE  i S      ? 20241014 2054   32.1400 GAU  3.00e-02 -1.00e+00 -1.00e+00 -1.00e+00 >    4.2859   -0.0040    1.9725    5.3414   -3.7373   -1.6400   10.2488 135.71 136.1 105.5  9     0.0000
SPCN   ?    BHZ  i P      ? 20241014 2054   31.3700 GAU  6.00e-02 -1.00e+00 -1.00e+00 -1.00e+00 >    2.9957    0.5162    0.0022    3.8137   -8.3946   -0.7333   13.2489 154.86 155.9  97.0  9     0.0000
SPCN   ?    BHN  i S      ? 20241014 2054   33.0600 GAU  6.00e-02 -1.00e+00 -1.00e+00 -1.00e+00 >    5.0328    0.1691    0.5102    3.8137   -8.3946   -0.7333   13.2489 154.86 155.9  97.0  9     0.0000
SPCG   ?    BHZ  i P      u 20241014 2054   30.9600 GAU  3.00e-02 -1.00e+00 -1.00e+00 -1.00e+00 >    3.3974   -0.2955    0.0403   12.4523   -0.8581   -1.3290   14.9472 107.35 107.3  95.8  9     0.0000
SPCG   ?    BHN  i S      ? 20241014 2054   33.0800 GAU  3.00e-02 -1.00e+00 -1.00e+00 -1.00e+00 >    5.7076   -0.4858    0.0349   12.4523   -0.8581   -1.3290   14.9472 107.35 107.3  95.8  9     0.0000
SPCL   ?    BHZ  i P      u 20241014 2054   31.3000 GAU  3.00e-02 -1.00e+00 -1.00e+00 -1.00e+00 >    3.4654   -0.0235    1.8604   -4.5526  -11.5234   -1.2740   15.3684 190.26 191.1  95.2  9     0.0000
SPCL   ?    BHN  i S      ? 20241014 2054   33.6800 GAU  3.00e-02 -1.00e+00 -1.00e+00 -1.00e+00 >    5.8219   -0.0000    1.9073   -4.5526  -11.5234   -1.2740   15.3684 190.26 191.1  95.2  9     0.0000
SPBL   ?    BHZ  i P      u 20241014 2054   31.9200 GAU  3.00e-02 -1.00e+00 -1.00e+00 -1.00e+00 >    6.6114   -2.5495    0.0000  -34.2389    8.6258   -0.9270   32.8114 278.81 279.7  74.9  9     0.0000
SPBL   ?    BHN  i S      ? 20241014 2054   34.7400 GAU  3.00e-02 -1.00e+00 -1.00e+00 -1.00e+00 >   11.1071   -4.2253    0.0000  -34.2389    8.6258   -0.9270   32.8114 278.81 279.7  74.9  9     0.0000
SPWE   ?    BHZ  i P      u 20241014 2054   31.1600 GAU  3.00e-02 -1.00e+00 -1.00e+00 -1.00e+00 >    0.0000    0.0000    0.0000 -100000000000000000000.0000 -100000000000000000000.0000 -100000000000000000000.0000    0.0000   0.00 359.0  -1.0  0     0.0000
SPNN   ?    BHZ  i P      u 20241014 2054   32.0200 GAU  3.00e-02 -1.00e+00 -1.00e+00 -1.00e+00 >    0.0000    0.0000    0.0000 -100000000000000000000.0000 -100000000000000000000.0000 -100000000000000000000.0000    0.0000   0.00 359.0  -1.0  0     0.0000
SPU    ?    BHZ  i P      u 20241014 2054   32.2400 GAU  3.00e-02 -1.00e+00 -1.00e+00 -1.00e+00 >    0.0000    0.0000    0.0000 -100000000000000000000.0000 -100000000000000000000.0000 -100000000000000000000.0000    0.0000   0.00 359.0  -1.0  0     0.0000
STLK   ?    BHZ  i P      u 20241014 2054   33.3200 GAU  3.00e-02 -1.00e+00 -1.00e+00 -1.00e+00 >    0.0000    0.0000    0.0000 -100000000000000000000.0000 -100000000000000000000.0000 -100000000000000000000.0000    0.0000   0.00 359.0  -1.0  0     0.0000
SPWE   ?    BHN  i S      ? 20241014 2054   33.4000 GAU  3.00e-02 -1.00e+00 -1.00e+00 -1.00e+00 >    0.0000    0.0000    0.0000 -100000000000000000000.0000 -100000000000000000000.0000 -100000000000000000000.0000    0.0000   0.00 359.0  -1.0  0     0.0000
SPNN   ?    BHN  i S      ? 20241014 2054   34.9000 GAU  3.00e-02 -1.00e+00 -1.00e+00 -1.00e+00 >    0.0000    0.0000    0.0000 -100000000000000000000.0000 -100000000000000000000.0000 -100000000000000000000.0000    0.0000   0.00 359.0  -1.0  0     0.0000
SPU    ?    BHN  i S      ? 20241014 2054   35.6000 GAU  3.00e-02 -1.00e+00 -1.00e+00 -1.00e+00 >    0.0000    0.0000    0.0000 -100000000000000000000.0000 -100000000000000000000.0000 -100000000000000000000.0000    0.0000   0.00 359.0  -1.0  0     0.0000
STLK   ?    BHN  i S      ? 20241014 2054   37.2800 GAU  6.00e-02 -1.00e+00 -1.00e+00 -1.00e+00 >    0.0000    0.0000    0.0000 -100000000000000000000.0000 -100000000000000000000.0000 -100000000000000000000.0000    0.0000   0.00 359.0  -1.0  0     0.0000
END_PHASE
END_NLLOC

