NLLOC "./loc/volcano.20241014.003337.grid0" "LOCATED" "Location completed."
PUBLIC_ID None
SIGNATURE "MARN+VDAP   obs:./obs/210046644.obs   NLLoc:v7.00.13(17Jan2022)   run:03Aug2025 05h11m24"
COMMENT "Santa Ana, El Salvador"
GRID  100 100 30  -50 -50 -3  1 1 1 PROB_DENSITY
SEARCH OCTREE nInitial 4400 nEvaluated 20032 smallestNodeSide 0.038672/0.038672/0.020597 oct_tree_integral 4.050889e-01 scatter_volume 4.050889e-01
HYPOCENTER  x 2.4584 y -1.91152 z 5.64027  OT 35.7995  ix -1 iy -1 iz -1 MAXIMUM_LIKELIHOOD
GEOGRAPHIC  OT 2024 10 14  00 33 35.799468  Lat 61.281848 Long -152.209245 Depth 5.640270
QUALITY  Pmax 6.99649e+24 MFmin 24.3193 MFmax 24.5482 RMS 0.0038427 Nphs 11 Gap 190.161 Dist 3.41254 Mamp -9.90 0 Mdur -9.90 0
VPVSRATIO  VpVsRatio 1.71668  Npair 5  Diff 1.6
STATISTICS  ExpectX 1.719251 Y -1.429296 Z 4.424218  CovXX 1.71153 XY -1.41692 XZ 2.32482 YY 1.37612 YZ -1.70189 ZZ 3.54486 EllAz1  241.229 Dip1  19.0583 Len1  0.246662 Az2  345.688 Dip2  35.8583 Len2  1.28548 Len3  4.658265e+00
STAT_GEOG  ExpectLat 61.286175 Long -152.223030 Depth 4.424218
TRANSFORM  SDC LatOrig 61.299000  LongOrig -152.255100  RotCW 0.000000
QML_OriginQuality  assocPhCt 19  usedPhCt 11  assocStaCt -1  usedStaCt 6  depthPhCt -1  stdErr 0.0038427  azGap 190.161  secAzGap 190.161  gtLevel -  minDist 3.41254 maxDist 11.8971 medDist 9.57411
QML_OriginUncertainty  horUnc -1  minHorUnc 0.518785  maxHorUnc 2.6139  azMaxHorUnc 131.625
QML_ConfidenceEllipsoid  semiMajorAxisLength 4.65826  semiMinorAxisLength 0.246662  semiIntermediateAxisLength 1.28548  majorAxisPlunge 47.8832  majorAxisAzimuth 128.764  majorAxisRotation 280.218
FOCALMECH  Hyp  61.281848 -152.209245 5.640270 Mech  0 0 0 mf  0 nObs -1
PHASE ID Ins Cmp On Pha  FM Date     HrMn   Sec     Err  ErrMag    Coda      Amp       Per  >   TTpred    Res       Weight    StaLoc(X  Y         Z)        SDist    SAzim  RAz  RDip RQual    Tcorr 
SPCP   ?    BHZ  i P      u 20241014 0033   37.5200 GAU  3.00e-02 -1.00e+00 -1.00e+00 -1.00e+00 >    1.7158    0.0047    1.8319    5.3414   -3.7373   -1.6400    3.4125 122.35 123.9 151.0  9     0.0000
SPCP   ?    BHE  i S      ? 20241014 0033   38.6800 GAU  3.00e-02 -1.00e+00 -1.00e+00 -1.00e+00 >    2.8825   -0.0020    1.8350    5.3414   -3.7373   -1.6400    3.4125 122.35 123.9 151.0  9     0.0000
SPCN   ?    BHZ  i P      u 20241014 0033   38.3000 GAU  3.00e-02 -1.00e+00 -1.00e+00 -1.00e+00 >    1.9115    0.5890    0.0000    3.8137   -8.3946   -0.7333    6.6232 168.19 166.7 125.6  8     0.0000
SPBG   ?    BHZ  i P      u 20241014 0033   37.6800 GAU  3.00e-02 -1.00e+00 -1.00e+00 -1.00e+00 >    2.3658   -0.4853    0.0000   -6.2803   -4.4466   -1.0870    9.0990 253.82 253.7 114.0  9     0.0000
SPBG   ?    BHE  i S      ? 20241014 0033   38.9000 GAU  3.00e-02 -1.00e+00 -1.00e+00 -1.00e+00 >    3.9745   -0.8740    0.0000   -6.2803   -4.4466   -1.0870    9.0990 253.82 253.7 114.0  9     0.0000
SPCG   ?    BHZ  i P      u 20241014 0033   38.3600 GAU  3.00e-02 -1.00e+00 -1.00e+00 -1.00e+00 >    2.5605    0.0000    1.8356   12.4523   -0.8581   -1.3290   10.0492  83.98  82.5 111.1  9     0.0000
SPCG   ?    BHN  i S      ? 20241014 0033   40.1000 GAU  3.00e-02 -1.00e+00 -1.00e+00 -1.00e+00 >    4.3017   -0.0012    1.8354   12.4523   -0.8581   -1.3290   10.0492  83.98  82.5 111.1  9     0.0000
SPCL   ?    BHZ  i P      u 20241014 0033   38.6600 GAU  3.00e-02 -1.00e+00 -1.00e+00 -1.00e+00 >    2.8668   -0.0063    1.8294   -4.5526  -11.5234   -1.2740   11.8971 216.11 214.1 106.0  9     0.0000
SPCL   ?    BHN  i S      ? 20241014 0033   40.6200 GAU  3.00e-02 -1.00e+00 -1.00e+00 -1.00e+00 >    4.8162    0.0043    1.8325   -4.5526  -11.5234   -1.2740   11.8971 216.11 214.1 106.0  9     0.0000
SPBL   ?    BHZ  i P      u 20241014 0033   39.8200 GAU  3.00e-02 -1.00e+00 -1.00e+00 -1.00e+00 >    7.5129   -3.4924    0.0000  -34.2389    8.6258   -0.9270   38.1802 286.02 286.2  76.1  9     0.0000
SPBL   ?    BHN  i S      ? 20241014 0033   42.5800 GAU  3.00e-02 -1.00e+00 -1.00e+00 -1.00e+00 >   12.6217   -5.8412    0.0000  -34.2389    8.6258   -0.9270   38.1802 286.02 286.2  76.1  9     0.0000
SPWE   ?    BHZ  i P      u 20241014 0033   39.2000 GAU  3.00e-02 -1.00e+00 -1.00e+00 -1.00e+00 >    0.0000    0.0000    0.0000 -100000000000000000000.0000 -100000000000000000000.0000 -100000000000000000000.0000    0.0000   0.00 359.0  -1.0  0     0.0000
SPU    ?    BHZ  i P      u 20241014 0033   39.3400 GAU  3.00e-02 -1.00e+00 -1.00e+00 -1.00e+00 >    0.0000    0.0000    0.0000 -100000000000000000000.0000 -100000000000000000000.0000 -100000000000000000000.0000    0.0000   0.00 359.0  -1.0  0     0.0000
SPNN   ?    BHZ  i P      u 20241014 0033   40.5000 GAU  3.00e-02 -1.00e+00 -1.00e+00 -1.00e+00 >    0.0000    0.0000    0.0000 -100000000000000000000.0000 -100000000000000000000.0000 -100000000000000000000.0000    0.0000   0.00 359.0  -1.0  0     0.0000
STLK   ?    BHZ  i P      u 20241014 0033   41.5800 GAU  3.00e-02 -1.00e+00 -1.00e+00 -1.00e+00 >    0.0000    0.0000    0.0000 -100000000000000000000.0000 -100000000000000000000.0000 -100000000000000000000.0000    0.0000   0.00 359.0  -1.0  0     0.0000
SPWE   ?    BHN  i S      ? 20241014 0033   41.7200 GAU  6.00e-02 -1.00e+00 -1.00e+00 -1.00e+00 >    0.0000    0.0000    0.0000 -100000000000000000000.0000 -100000000000000000000.0000 -100000000000000000000.0000    0.0000   0.00 359.0  -1.0  0     0.0000
SPU    ?    BHN  i S      ? 20241014 0033   41.8000 GAU  3.00e-02 -1.00e+00 -1.00e+00 -1.00e+00 >    0.0000    0.0000    0.0000 -100000000000000000000.0000 -100000000000000000000.0000 -100000000000000000000.0000    0.0000   0.00 359.0  -1.0  0     0.0000
SPNN   ?    BHN  i S      ? 20241014 0033   43.8400 GAU  3.00e-02 -1.00e+00 -1.00e+00 -1.00e+00 >    0.0000    0.0000    0.0000 -100000000000000000000.0000 -100000000000000000000.0000 -100000000000000000000.0000    0.0000   0.00 359.0  -1.0  0     0.0000
STLK   ?    BHN  i S      ? 20241014 0033   45.9200 GAU  6.00e-02 -1.00e+00 -1.00e+00 -1.00e+00 >    0.0000    0.0000    0.0000 -100000000000000000000.0000 -100000000000000000000.0000 -100000000000000000000.0000    0.0000   0.00 359.0  -1.0  0     0.0000
END_PHASE
END_NLLOC

