NLLOC "./loc/volcano.20241014.093830.grid0" "LOCATED" "Location completed."
PUBLIC_ID None
SIGNATURE "MARN+VDAP   obs:./obs/210046694.obs   NLLoc:v7.00.13(17Jan2022)   run:03Aug2025 05h11m24"
COMMENT "Santa Ana, El Salvador"
GRID  100 100 30  -50 -50 -3  1 1 1 PROB_DENSITY
SEARCH OCTREE nInitial 4400 nEvaluated 20008 smallestNodeSide 0.154688/0.154688/0.082386 oct_tree_integral 1.371486e+01 scatter_volume 1.371486e+01
HYPOCENTER  x 13.8086 y 19.9961 z -2.95881  OT 28.341  ix -1 iy -1 iz -1 MAXIMUM_LIKELIHOOD
GEOGRAPHIC  OT 2024 10 14  09 38 28.341008  Lat 61.478426 Long -151.996729 Depth -2.958807
QUALITY  Pmax 1.72944e+10 MFmin 10.0647 MFmax 12.2765 RMS 0.00450803 Nphs 6 Gap 324.305 Dist 20.8983 Mamp -9.90 0 Mdur -9.90 0
VPVSRATIO  VpVsRatio 0.5  Npair 2  Diff 2.04
STATISTICS  ExpectX 18.853045 Y 12.198636 Z 5.514576  CovXX 161.927 XY -18.972 XZ 18.9812 YY 140.741 YZ -45.0305 ZZ 59.3284 EllAz1  168.2 Dip1  -66.5712 Len1  11.6647 Az2  225.168 Dip2  13.2903 Len2  21.9706 Len3  2.567249e+01
STAT_GEOG  ExpectLat 61.408459 Long -151.902736 Depth 5.514576
TRANSFORM  SDC LatOrig 61.299000  LongOrig -152.255100  RotCW 0.000000
QML_OriginQuality  assocPhCt 9  usedPhCt 6  assocStaCt -1  usedStaCt 4  depthPhCt -1  stdErr 0.00450803  azGap 324.305  secAzGap 344.327  gtLevel -  minDist 20.8983 maxDist 31.6387 medDist 30.8687
QML_OriginUncertainty  horUnc -1  minHorUnc 17.2653  maxHorUnc 19.9511  azMaxHorUnc 120.412
QML_ConfidenceEllipsoid  semiMajorAxisLength 25.6725  semiMinorAxisLength 11.6647  semiIntermediateAxisLength 21.9706  majorAxisPlunge 18.9302  majorAxisAzimuth 130.522  majorAxisRotation 281.189
FOCALMECH  Hyp  61.478426 -151.996729 -2.958807 Mech  0 0 0 mf  0 nObs -1
PHASE ID Ins Cmp On Pha  FM Date     HrMn   Sec     Err  ErrMag    Coda      Amp       Per  >   TTpred    Res       Weight    StaLoc(X  Y         Z)        SDist    SAzim  RAz  RDip RQual    Tcorr 
SPCG   ?    BHZ  i P      d 20241014 0938   33.2800 GAU  3.00e-02 -1.00e+00 -1.00e+00 -1.00e+00 >    4.9399   -0.0009    1.6322   12.4523   -0.8581   -1.3290   20.8983 183.72  40.0 200.0  0     0.0000
SPCG   ?    BHN  i S      ? 20241014 0938   36.6400 GAU  3.00e-02 -1.00e+00 -1.00e+00 -1.00e+00 >    8.2990    0.0000    1.4778   12.4523   -0.8581   -1.3290   20.8983 183.72  40.0 200.0  0     0.0000
SPCN   ?    BHZ  i P      ? 20241014 0938   35.2600 GAU  6.00e-02 -1.00e+00 -1.00e+00 -1.00e+00 >    6.9101    0.0089    1.4516    3.8137   -8.3946   -0.7333   30.0986 199.39  40.0 200.0  0     0.0000
SPBG   ?    BHZ  i P      ? 20241014 0938   35.5600 GAU  6.00e-02 -1.00e+00 -1.00e+00 -1.00e+00 >    7.2231   -0.0041    1.4384   -6.2803   -4.4466   -1.0870   31.6387 219.42  40.0 200.0  0     0.0000
SPBL   ?    BHZ  i P      d 20241014 0938   31.2800 GAU  3.00e-02 -1.00e+00 -1.00e+00 -1.00e+00 >   10.4795   -7.5405    0.0000  -34.2389    8.6258   -0.9270   49.3746 256.69  40.0 200.0  0     0.0000
SPBL   ?    BHE  i S      ? 20241014 0938   32.6000 GAU  3.00e-02 -1.00e+00 -1.00e+00 -1.00e+00 >   17.6056  -13.3466    0.0000  -34.2389    8.6258   -0.9270   49.3746 256.69  40.0 200.0  0     0.0000
STLK   ?    BHZ  i P      u 20241014 0938   30.5000 GAU  3.00e-02 -1.00e+00 -1.00e+00 -1.00e+00 >    0.0000    0.0000    0.0000 -100000000000000000000.0000 -100000000000000000000.0000 -100000000000000000000.0000    0.0000   0.00 359.0  -1.0  0     0.0000
STLK   ?    BHN  i S      ? 20241014 0938   31.3400 GAU  6.00e-02 -1.00e+00 -1.00e+00 -1.00e+00 >    0.0000    0.0000    0.0000 -100000000000000000000.0000 -100000000000000000000.0000 -100000000000000000000.0000    0.0000   0.00 359.0  -1.0  0     0.0000
SPNN   ?    BHE  i S      ? 20241014 0938   42.8200 GAU  6.00e-02 -1.00e+00 -1.00e+00 -1.00e+00 >    0.0000    0.0000    0.0000 -100000000000000000000.0000 -100000000000000000000.0000 -100000000000000000000.0000    0.0000   0.00 359.0  -1.0  0     0.0000
END_PHASE
END_NLLOC

