NLLOC "./loc/volcano.20241014.222350.grid0" "REJECTED" "WARNING: max prob location on grid boundary 31, rejecting location."
PUBLIC_ID None
SIGNATURE "MARN+VDAP   obs:./obs/210046884.obs   NLLoc:v7.00.13(17Jan2022)   run:03Aug2025 05h11m24"
COMMENT "Santa Ana, El Salvador"
GRID  100 100 30  -50 -50 -3  1 1 1 PROB_DENSITY
SEARCH OCTREE nInitial 4400 nEvaluated 20008 smallestNodeSide 0.154688/0.154688/0.082386 oct_tree_integral 1.107917e+01 scatter_volume 1.107917e+01
HYPOCENTER  x 9.78672 y -11.4055 z 25.9588  OT 45.6607  ix -1 iy -1 iz -1 MAXIMUM_LIKELIHOOD
GEOGRAPHIC  OT 2024 10 14  22 23 45.660670  Lat 61.196658 Long -152.072801 Depth 25.958807
QUALITY  Pmax 4.25462e+20 MFmin 19.323 MFmax 21.5871 RMS 0.0764774 Nphs 10 Gap 255.346 Dist 8.86348 Mamp -9.90 0 Mdur -9.90 0
VPVSRATIO  VpVsRatio 1.097  Npair 5  Diff 0.62
STATISTICS  ExpectX 13.063264 Y -16.752946 Z 19.914380  CovXX 12.3966 XY -19.7686 XZ -19.9335 YY 35.6268 YZ 33.7672 ZZ 57.0076 EllAz1  61.3728 Dip1  1.3504 Len1  1.94429 Az2  332.56 Dip2  -41.3095 Len2  6.63056 Len3  1.797261e+01
STAT_GEOG  ExpectLat 61.148675 Long -152.011953 Depth 19.914380
TRANSFORM  SDC LatOrig 61.299000  LongOrig -152.255100  RotCW 0.000000
QML_OriginQuality  assocPhCt 17  usedPhCt 10  assocStaCt -1  usedStaCt 5  depthPhCt -1  stdErr 0.0764774  azGap 255.346  secAzGap 255.346  gtLevel -  minDist 8.86348 maxDist 17.5092 medDist 14.3398
QML_OriginUncertainty  horUnc -1  minHorUnc 1.57852  maxHorUnc 10.3905  azMaxHorUnc 150.218
QML_ConfidenceEllipsoid  semiMajorAxisLength 17.9726  semiMinorAxisLength 1.94429  semiIntermediateAxisLength 6.63056  majorAxisPlunge -48.6584  majorAxisAzimuth 149.837  majorAxisRotation 195.659
FOCALMECH  Hyp  61.196658 -152.072801 25.958807 Mech  0 0 0 mf  0 nObs -1
PHASE ID Ins Cmp On Pha  FM Date     HrMn   Sec     Err  ErrMag    Coda      Amp       Per  >   TTpred    Res       Weight    StaLoc(X  Y         Z)        SDist    SAzim  RAz  RDip RQual    Tcorr 
SPCP   ?    BHZ  i P      u 20241014 2223   50.7800 GAU  3.00e-02 -1.00e+00 -1.00e+00 -1.00e+00 >    4.9956    0.1237    1.2230    5.3414   -3.7373   -1.6400    8.8635 329.90 328.3 158.0  9     0.0000
SPCP   ?    BHN  i S      ? 20241014 2223   54.2000 GAU  3.00e-02 -1.00e+00 -1.00e+00 -1.00e+00 >    8.3926    0.1467    1.1140    5.3414   -3.7373   -1.6400    8.8635 329.90 328.3 158.0  9     0.0000
SPCG   ?    BHZ  i P      u 20241014 2223   50.6500 GAU  3.00e-02 -1.00e+00 -1.00e+00 -1.00e+00 >    5.0350   -0.0457    1.4351   12.4523   -0.8581   -1.3290   10.8790  14.18  17.3 154.1  9     0.0000
SPCG   ?    BHE  i S      ? 20241014 2223   54.1400 GAU  3.00e-02 -1.00e+00 -1.00e+00 -1.00e+00 >    8.4588    0.0205    1.6522   12.4523   -0.8581   -1.3290   10.8790  14.18  17.3 154.1  9     0.0000
SPCL   ?    BHZ  i P      d 20241014 2223   50.9200 GAU  3.00e-02 -1.00e+00 -1.00e+00 -1.00e+00 >    5.2539    0.0055    1.7163   -4.5526  -11.5234   -1.2740   14.3398 269.53 269.1 147.9  9     0.0000
SPCL   ?    BHE  i S      ? 20241014 2223   54.5400 GAU  3.00e-02 -1.00e+00 -1.00e+00 -1.00e+00 >    8.8265    0.0528    1.6123   -4.5526  -11.5234   -1.2740   14.3398 269.53 269.1 147.9  9     0.0000
SPBG   ?    BHZ  i P      u 20241014 2223   50.7800 GAU  3.00e-02 -1.00e+00 -1.00e+00 -1.00e+00 >    5.4942   -0.3749    0.0121   -6.2803   -4.4466   -1.0870   17.5092 293.42 294.8 141.9  9     0.0000
SPBG   ?    BHN  i S      ? 20241014 2223   54.8200 GAU  3.00e-02 -1.00e+00 -1.00e+00 -1.00e+00 >    9.2303   -0.0710    1.2349   -6.2803   -4.4466   -1.0870   17.5092 293.42 294.8 141.9  9     0.0000
SPBL   ?    BHZ  i P      u 20241014 2223   51.8800 GAU  3.00e-02 -1.00e+00 -1.00e+00 -1.00e+00 >    9.2004   -2.9811    0.0000  -34.2389    8.6258   -0.9270   48.3685 294.47 294.1 105.0  9     0.0000
SPBL   ?    BHN  i S      ? 20241014 2223   55.6400 GAU  3.00e-02 -1.00e+00 -1.00e+00 -1.00e+00 >   15.4567   -5.4773    0.0000  -34.2389    8.6258   -0.9270   48.3685 294.47 294.1 105.0  9     0.0000
SPU    ?    BHZ  i P      ? 20241014 2223   50.6200 GAU  6.00e-02 -1.00e+00 -1.00e+00 -1.00e+00 >    0.0000    0.0000    0.0000 -100000000000000000000.0000 -100000000000000000000.0000 -100000000000000000000.0000    0.0000   0.00 359.0  -1.0  0     0.0000
SPWE   ?    BHZ  i P      u 20241014 2223   52.1200 GAU  3.00e-02 -1.00e+00 -1.00e+00 -1.00e+00 >    0.0000    0.0000    0.0000 -100000000000000000000.0000 -100000000000000000000.0000 -100000000000000000000.0000    0.0000   0.00 359.0  -1.0  0     0.0000
SPNN   ?    BHZ  i P      ? 20241014 2223   53.4200 GAU  6.00e-02 -1.00e+00 -1.00e+00 -1.00e+00 >    0.0000    0.0000    0.0000 -100000000000000000000.0000 -100000000000000000000.0000 -100000000000000000000.0000    0.0000   0.00 359.0  -1.0  0     0.0000
SPU    ?    BHE  i S      ? 20241014 2223   53.9400 GAU  6.00e-02 -1.00e+00 -1.00e+00 -1.00e+00 >    0.0000    0.0000    0.0000 -100000000000000000000.0000 -100000000000000000000.0000 -100000000000000000000.0000    0.0000   0.00 359.0  -1.0  0     0.0000
SPWE   ?    BHE  i S      ? 20241014 2223   55.4400 GAU  3.00e-02 -1.00e+00 -1.00e+00 -1.00e+00 >    0.0000    0.0000    0.0000 -100000000000000000000.0000 -100000000000000000000.0000 -100000000000000000000.0000    0.0000   0.00 359.0  -1.0  0     0.0000
SPNN   ?    BHN  i S      ? 20241014 2223   57.7400 GAU  3.00e-02 -1.00e+00 -1.00e+00 -1.00e+00 >    0.0000    0.0000    0.0000 -100000000000000000000.0000 -100000000000000000000.0000 -100000000000000000000.0000    0.0000   0.00 359.0  -1.0  0     0.0000
STLK   ?    BHN  i S      ? 20241014 2223   58.3600 GAU  3.00e-02 -1.00e+00 -1.00e+00 -1.00e+00 >    0.0000    0.0000    0.0000 -100000000000000000000.0000 -100000000000000000000.0000 -100000000000000000000.0000    0.0000   0.00 359.0  -1.0  0     0.0000
END_PHASE
END_NLLOC

