NLLOC "./loc/volcano.20241014.144757.grid0" "LOCATED" "Location completed."
PUBLIC_ID None
SIGNATURE "MARN+VDAP   obs:./obs/210046784.obs   NLLoc:v7.00.13(17Jan2022)   run:03Aug2025 05h11m24"
COMMENT "Santa Ana, El Salvador"
GRID  100 100 30  -50 -50 -3  1 1 1 PROB_DENSITY
SEARCH OCTREE nInitial 4400 nEvaluated 20016 smallestNodeSide 0.077344/0.077344/0.041193 oct_tree_integral 1.531416e+00 scatter_volume 1.528065e+00
HYPOCENTER  x -6.18477 y 2.47773 z 5.21804  OT 55.1142  ix -1 iy -1 iz -1 MAXIMUM_LIKELIHOOD
GEOGRAPHIC  OT 2024 10 14  14 47 55.114218  Lat 61.321233 Long -152.370533 Depth 5.218040
QUALITY  Pmax 1.75424e+20 MFmin 19.888 MFmax 20.2583 RMS 0.0613906 Nphs 9 Gap 177.787 Dist 6.92504 Mamp -9.90 0 Mdur -9.90 0
VPVSRATIO  VpVsRatio 2.3031  Npair 4  Diff 1.8
STATISTICS  ExpectX -6.087803 Y 1.651925 Z 5.318449  CovXX 0.362012 XY -0.0387334 XZ -0.156298 YY 4.57692 YZ -2.80986 ZZ 2.38414 EllAz1  68.3804 Dip1  28.9906 Len1  0.945974 Az2  308.524 Dip2  41.9382 Len2  1.4214 Len3  4.789074e+00
STAT_GEOG  ExpectLat 61.313823 Long -152.368710 Depth 5.318449
TRANSFORM  SDC LatOrig 61.299000  LongOrig -152.255100  RotCW 0.000000
QML_OriginQuality  assocPhCt 13  usedPhCt 9  assocStaCt -1  usedStaCt 5  depthPhCt -1  stdErr 0.0613906  azGap 177.787  secAzGap 279.358  gtLevel -  minDist 6.92504 maxDist 28.72 medDist 14.0959
QML_OriginUncertainty  horUnc -1  minHorUnc 0.912035  maxHorUnc 3.24465  azMaxHorUnc 179.474
QML_ConfidenceEllipsoid  semiMajorAxisLength 4.78907  semiMinorAxisLength 0.945974  semiIntermediateAxisLength 1.4214  majorAxisPlunge -34.3538  majorAxisAzimuth 0.636017  majorAxisRotation 63.4013
FOCALMECH  Hyp  61.321233 -152.370533 5.218040 Mech  0 0 0 mf  0 nObs -1
PHASE ID Ins Cmp On Pha  FM Date     HrMn   Sec     Err  ErrMag    Coda      Amp       Per  >   TTpred    Res       Weight    StaLoc(X  Y         Z)        SDist    SAzim  RAz  RDip RQual    Tcorr 
SPBG   ?    BHZ  i P      d 20241014 1447   57.0400 GAU  3.00e-02 -1.00e+00 -1.00e+00 -1.00e+00 >    1.9703   -0.0445    1.1933   -6.2803   -4.4466   -1.0870    6.9250 180.79 181.1 122.5  8     0.0000
SPBG   ?    BHE  i S      ? 20241014 1447   58.4800 GAU  3.00e-02 -1.00e+00 -1.00e+00 -1.00e+00 >    3.3101    0.0557    1.2348   -6.2803   -4.4466   -1.0870    6.9250 180.79 181.1 122.5  8     0.0000
SPCP   ?    BHZ  i P      u 20241014 1447   58.3200 GAU  3.00e-02 -1.00e+00 -1.00e+00 -1.00e+00 >    3.1253    0.0804    1.0871    5.3414   -3.7373   -1.6400   13.0950 118.33 116.9 102.3  9     0.0000
SPCP   ?    BHE  i S      ? 20241014 1448    0.3000 GAU  3.00e-02 -1.00e+00 -1.00e+00 -1.00e+00 >    5.2506   -0.0648    1.0549    5.3414   -3.7373   -1.6400   13.0950 118.33 116.9 102.3  9     0.0000
SPCL   ?    BHZ  i P      u 20241014 1447   58.3800 GAU  3.00e-02 -1.00e+00 -1.00e+00 -1.00e+00 >    3.2536    0.0122    1.3547   -4.5526  -11.5234   -1.2740   14.0959 173.35 172.0 100.4  9     0.0000
SPCL   ?    BHN  i S      ? 20241014 1447   59.2200 GAU  3.00e-02 -1.00e+00 -1.00e+00 -1.00e+00 >    5.4660   -1.3602    0.0000   -4.5526  -11.5234   -1.2740   14.0959 173.35 172.0 100.4  9     0.0000
SPCG   ?    BHZ  i P      d 20241014 1447   59.3800 GAU  3.00e-02 -1.00e+00 -1.00e+00 -1.00e+00 >    4.1374    0.1284    0.7013   12.4523   -0.8581   -1.3290   18.9332 100.15 101.0  94.1  9     0.0000
SPCG   ?    BHN  i S      ? 20241014 1448    2.0200 GAU  3.00e-02 -1.00e+00 -1.00e+00 -1.00e+00 >    6.9509   -0.0451    1.1540   12.4523   -0.8581   -1.3290   18.9332 100.15 101.0  94.1  9     0.0000
SPBL   ?    BHZ  i P      ? 20241014 1448    0.9400 GAU  6.00e-02 -1.00e+00 -1.00e+00 -1.00e+00 >    5.8451   -0.0194    1.2199  -34.2389    8.6258   -0.9270   28.7200 282.36 283.0  82.5  9     0.0000
SPWE   ?    BHZ  i P      d 20241014 1447   58.5400 GAU  3.00e-02 -1.00e+00 -1.00e+00 -1.00e+00 >    0.0000    0.0000    0.0000 -100000000000000000000.0000 -100000000000000000000.0000 -100000000000000000000.0000    0.0000   0.00 359.0  -1.0  0     0.0000
SPU    ?    BHZ  i P      ? 20241014 1447   59.9000 GAU  6.00e-02 -1.00e+00 -1.00e+00 -1.00e+00 >    0.0000    0.0000    0.0000 -100000000000000000000.0000 -100000000000000000000.0000 -100000000000000000000.0000    0.0000   0.00 359.0  -1.0  0     0.0000
SPNN   ?    BHZ  i P      d 20241014 1448    0.1800 GAU  3.00e-02 -1.00e+00 -1.00e+00 -1.00e+00 >    0.0000    0.0000    0.0000 -100000000000000000000.0000 -100000000000000000000.0000 -100000000000000000000.0000    0.0000   0.00 359.0  -1.0  0     0.0000
SPWE   ?    BHE  i S      ? 20241014 1448    0.6800 GAU  6.00e-02 -1.00e+00 -1.00e+00 -1.00e+00 >    0.0000    0.0000    0.0000 -100000000000000000000.0000 -100000000000000000000.0000 -100000000000000000000.0000    0.0000   0.00 359.0  -1.0  0     0.0000
END_PHASE
END_NLLOC

