NLLOC "./loc/volcano.20241014.094138.grid0" "LOCATED" "Location completed."
PUBLIC_ID None
SIGNATURE "MARN+VDAP   obs:./obs/210046709.obs   NLLoc:v7.00.13(17Jan2022)   run:03Aug2025 05h11m24"
COMMENT "Santa Ana, El Salvador"
GRID  100 100 30  -50 -50 -3  1 1 1 PROB_DENSITY
SEARCH OCTREE nInitial 4400 nEvaluated 20000 smallestNodeSide 0.077344/0.077344/0.041193 oct_tree_integral 2.724144e+00 scatter_volume 2.722844e+00
HYPOCENTER  x -7.07422 y 8.85859 z 6.43324  OT 34.1183  ix -1 iy -1 iz -1 MAXIMUM_LIKELIHOOD
GEOGRAPHIC  OT 2024 10 14  09 41 34.118331  Lat 61.378489 Long -152.387254 Depth 6.433239
QUALITY  Pmax 2.8313e+22 MFmin 21.3451 MFmax 21.6002 RMS 0.0354979 Nphs 10 Gap 206.947 Dist 13.3289 Mamp -9.90 0 Mdur -9.90 0
VPVSRATIO  VpVsRatio 1.54378  Npair 4  Diff 0.88
STATISTICS  ExpectX -3.638978 Y 3.262983 Z 12.352031  CovXX 21.3833 XY -33.291 XZ 31.6271 YY 55.2751 YZ -50.6598 ZZ 52.2765 EllAz1  244.51 Dip1  7.48332 Len1  1.79164 Az2  343.376 Dip2  49.5568 Len2  3.35467 Len3  2.099229e+01
STAT_GEOG  ExpectLat 61.328279 Long -152.323026 Depth 12.352031
TRANSFORM  SDC LatOrig 61.299000  LongOrig -152.255100  RotCW 0.000000
QML_OriginQuality  assocPhCt 18  usedPhCt 10  assocStaCt -1  usedStaCt 6  depthPhCt -1  stdErr 0.0354979  azGap 206.947  secAzGap 206.947  gtLevel -  minDist 13.3289 maxDist 27.1657 medDist 20.4694
QML_OriginUncertainty  horUnc -1  minHorUnc 1.49627  maxHorUnc 13.1938  azMaxHorUnc 148.489
QML_ConfidenceEllipsoid  semiMajorAxisLength 20.9923  semiMinorAxisLength 1.79164  semiIntermediateAxisLength 3.35467  majorAxisPlunge 39.456  majorAxisAzimuth 148.304  majorAxisRotation 41.6635
FOCALMECH  Hyp  61.378489 -152.387254 6.433239 Mech  0 0 0 mf  0 nObs -1
PHASE ID Ins Cmp On Pha  FM Date     HrMn   Sec     Err  ErrMag    Coda      Amp       Per  >   TTpred    Res       Weight    StaLoc(X  Y         Z)        SDist    SAzim  RAz  RDip RQual    Tcorr 
SPBG   ?    BHZ  i P      u 20241014 0941   38.6400 GAU  3.00e-02 -1.00e+00 -1.00e+00 -1.00e+00 >    3.1322    1.3895    0.0000   -6.2803   -4.4466   -1.0870   13.3289 176.59 175.4 105.2  9     0.0000
SPBG   ?    BHE  i S      ? 20241014 0941   41.3800 GAU  6.00e-02 -1.00e+00 -1.00e+00 -1.00e+00 >    5.2621    1.9995    0.0000   -6.2803   -4.4466   -1.0870   13.3289 176.59 175.4 105.2  9     0.0000
SPCP   ?    BHZ  i P      d 20241014 0941   38.5200 GAU  3.00e-02 -1.00e+00 -1.00e+00 -1.00e+00 >    3.9640    0.4377    0.0000    5.3414   -3.7373   -1.6400   17.6863 135.41 135.8  99.5  9     0.0000
SPCN   ?    BHZ  i P      d 20241014 0941   38.4600 GAU  3.00e-02 -1.00e+00 -1.00e+00 -1.00e+00 >    4.3217    0.0200    1.5637    3.8137   -8.3946   -0.7333   20.4015 147.75 149.2  95.1  9     0.0000
SPCL   ?    BHZ  i P      u 20241014 0941   38.5600 GAU  3.00e-02 -1.00e+00 -1.00e+00 -1.00e+00 >    4.4339    0.0078    1.6164   -4.5526  -11.5234   -1.2740   20.5374 172.95 171.8  95.8  9     0.0000
SPCL   ?    BHN  i S      ? 20241014 0941   41.5400 GAU  3.00e-02 -1.00e+00 -1.00e+00 -1.00e+00 >    7.4489   -0.0272    1.4361   -4.5526  -11.5234   -1.2740   20.5374 172.95 171.8  95.8  9     0.0000
SPCG   ?    BHZ  i P      d 20241014 0941   38.7600 GAU  3.00e-02 -1.00e+00 -1.00e+00 -1.00e+00 >    4.6670   -0.0254    1.5942   12.4523   -0.8581   -1.3290   21.8105 116.46 115.5  94.3  9     0.0000
SPCG   ?    BHE  i S      ? 20241014 0941   41.9400 GAU  3.00e-02 -1.00e+00 -1.00e+00 -1.00e+00 >    7.8406   -0.0189    1.4248   12.4523   -0.8581   -1.3290   21.8105 116.46 115.5  94.3  9     0.0000
SPBL   ?    BHZ  i P      u 20241014 0941   39.6800 GAU  3.00e-02 -1.00e+00 -1.00e+00 -1.00e+00 >    5.5348    0.0269    1.4934  -34.2389    8.6258   -0.9270   27.1657 269.51 269.3  88.0  9     0.0000
SPBL   ?    BHE  i S      ? 20241014 0941   43.3000 GAU  3.00e-02 -1.00e+00 -1.00e+00 -1.00e+00 >    9.2985   -0.1168    0.8714  -34.2389    8.6258   -0.9270   27.1657 269.51 269.3  88.0  9     0.0000
SPU    ?    BHZ  i P      u 20241014 0941   38.6400 GAU  3.00e-02 -1.00e+00 -1.00e+00 -1.00e+00 >    0.0000    0.0000    0.0000 -100000000000000000000.0000 -100000000000000000000.0000 -100000000000000000000.0000    0.0000   0.00 359.0  -1.0  0     0.0000
SPWE   ?    BHZ  i P      u 20241014 0941   39.5600 GAU  3.00e-02 -1.00e+00 -1.00e+00 -1.00e+00 >    0.0000    0.0000    0.0000 -100000000000000000000.0000 -100000000000000000000.0000 -100000000000000000000.0000    0.0000   0.00 359.0  -1.0  0     0.0000
SPNN   ?    BHZ  i P      u 20241014 0941   40.5200 GAU  3.00e-02 -1.00e+00 -1.00e+00 -1.00e+00 >    0.0000    0.0000    0.0000 -100000000000000000000.0000 -100000000000000000000.0000 -100000000000000000000.0000    0.0000   0.00 359.0  -1.0  0     0.0000
STLK   ?    BHZ  i P      u 20241014 0941   41.2400 GAU  3.00e-02 -1.00e+00 -1.00e+00 -1.00e+00 >    0.0000    0.0000    0.0000 -100000000000000000000.0000 -100000000000000000000.0000 -100000000000000000000.0000    0.0000   0.00 359.0  -1.0  0     0.0000
SPU    ?    BHN  i S      ? 20241014 0941   41.7600 GAU  6.00e-02 -1.00e+00 -1.00e+00 -1.00e+00 >    0.0000    0.0000    0.0000 -100000000000000000000.0000 -100000000000000000000.0000 -100000000000000000000.0000    0.0000   0.00 359.0  -1.0  0     0.0000
SPWE   ?    BHN  i S      ? 20241014 0941   43.0800 GAU  3.00e-02 -1.00e+00 -1.00e+00 -1.00e+00 >    0.0000    0.0000    0.0000 -100000000000000000000.0000 -100000000000000000000.0000 -100000000000000000000.0000    0.0000   0.00 359.0  -1.0  0     0.0000
SPNN   ?    BHN  i S      ? 20241014 0941   45.2000 GAU  3.00e-02 -1.00e+00 -1.00e+00 -1.00e+00 >    0.0000    0.0000    0.0000 -100000000000000000000.0000 -100000000000000000000.0000 -100000000000000000000.0000    0.0000   0.00 359.0  -1.0  0     0.0000
STLK   ?    BHE  i S      ? 20241014 0941   46.0200 GAU  3.00e-02 -1.00e+00 -1.00e+00 -1.00e+00 >    0.0000    0.0000    0.0000 -100000000000000000000.0000 -100000000000000000000.0000 -100000000000000000000.0000    0.0000   0.00 359.0  -1.0  0     0.0000
END_PHASE
END_NLLOC

