NLLOC "./loc/volcano.20241014.060344.grid0" "LOCATED" "Location completed."
PUBLIC_ID None
SIGNATURE "MARN+VDAP   obs:./obs/210046679.obs   NLLoc:v7.00.13(17Jan2022)   run:03Aug2025 05h11m24"
COMMENT "Santa Ana, El Salvador"
GRID  100 100 30  -50 -50 -3  1 1 1 PROB_DENSITY
SEARCH OCTREE nInitial 4400 nEvaluated 20000 smallestNodeSide 0.309375/0.309375/0.164773 oct_tree_integral 1.085167e+02 scatter_volume 1.085167e+02
HYPOCENTER  x -34.6859 y 11.1016 z 9.1108  OT 42.7618  ix -1 iy -1 iz -1 MAXIMUM_LIKELIHOOD
GEOGRAPHIC  OT 2024 10 14  06 03 42.761798  Lat 61.398615 Long -152.903279 Depth 9.110795
QUALITY  Pmax 4.43702e+07 MFmin 8.85747 MFmax 11.6953 RMS 0.00150223 Nphs 5 Gap 308.929 Dist 2.51576 Mamp -9.90 0 Mdur -9.90 0
VPVSRATIO  VpVsRatio 0.5  Npair 2  Diff 2.02
STATISTICS  ExpectX 11.066766 Y 3.713190 Z 11.181648  CovXX 795.287 XY -109.571 XZ 87.5091 YY 180.548 YZ -6.11724 ZZ 45.2595 EllAz1  67.7689 Dip1  -82.4747 Len1  11.0938 Az2  189.281 Dip2  -3.94975 Len2  23.9295 Len3  5.393303e+01
STAT_GEOG  ExpectLat 61.332319 Long -152.048512 Depth 11.181648
TRANSFORM  SDC LatOrig 61.299000  LongOrig -152.255100  RotCW 0.000000
QML_OriginQuality  assocPhCt 9  usedPhCt 5  assocStaCt -1  usedStaCt 3  depthPhCt -1  stdErr 0.00150223  azGap 308.929  secAzGap 360  gtLevel -  minDist 2.51576 maxDist 32.3825 medDist 32.3825
QML_OriginUncertainty  horUnc -1  minHorUnc 19.2791  maxHorUnc 43.2751  azMaxHorUnc 99.81
QML_ConfidenceEllipsoid  semiMajorAxisLength 53.933  semiMinorAxisLength 11.0938  semiIntermediateAxisLength 23.9295  majorAxisPlunge 6.39518  majorAxisAzimuth 99.7239  majorAxisRotation 266.124
FOCALMECH  Hyp  61.398615 -152.903279 9.110795 Mech  0 0 0 mf  0 nObs -1
PHASE ID Ins Cmp On Pha  FM Date     HrMn   Sec     Err  ErrMag    Coda      Amp       Per  >   TTpred    Res       Weight    StaLoc(X  Y         Z)        SDist    SAzim  RAz  RDip RQual    Tcorr 
SPBL   ?    BHZ  i P      u 20241014 0603   44.8200 GAU  3.00e-02 -1.00e+00 -1.00e+00 -1.00e+00 >    2.0582    0.0000    1.6980  -34.2389    8.6258   -0.9270    2.5158 169.77 167.3 162.1  9     0.0000
SPBL   ?    BHE  i S      ? 20241014 0603   46.2200 GAU  3.00e-02 -1.00e+00 -1.00e+00 -1.00e+00 >    3.4578    0.0004    1.6979  -34.2389    8.6258   -0.9270    2.5158 169.77 167.3 162.1  9     0.0000
SPBG   ?    BHZ  i P      u 20241014 0603   49.2200 GAU  3.00e-02 -1.00e+00 -1.00e+00 -1.00e+00 >    6.4610   -0.0028    1.6041   -6.2803   -4.4466   -1.0870   32.3825 118.69 117.8  89.3  9     0.0000
SPCG   ?    BHZ  i P      ? 20241014 0603   46.7200 GAU  3.00e-02 -1.00e+00 -1.00e+00 -1.00e+00 >    9.2084   -5.2502    0.0000   12.4523   -0.8581   -1.3290   48.6317 104.24 104.5  76.7  9     0.0000
SPCG   ?    BHN  i S      ? 20241014 0603   50.1400 GAU  6.00e-02 -1.00e+00 -1.00e+00 -1.00e+00 >   15.4702   -8.0920    0.0000   12.4523   -0.8581   -1.3290   48.6317 104.24 104.5  76.7  9     0.0000
STLK   ?    BHZ  i P      d 20241014 0603   44.0000 GAU  3.00e-02 -1.00e+00 -1.00e+00 -1.00e+00 >    0.0000    0.0000    0.0000 -100000000000000000000.0000 -100000000000000000000.0000 -100000000000000000000.0000    0.0000   0.00 359.0  -1.0  0     0.0000
STLK   ?    BHN  i S      ? 20241014 0603   45.5600 GAU  3.00e-02 -1.00e+00 -1.00e+00 -1.00e+00 >    0.0000    0.0000    0.0000 -100000000000000000000.0000 -100000000000000000000.0000 -100000000000000000000.0000    0.0000   0.00 359.0  -1.0  0     0.0000
SPNN   ?    BHZ  i P      ? 20241014 0603   51.4400 GAU  6.00e-02 -1.00e+00 -1.00e+00 -1.00e+00 >    0.0000    0.0000    0.0000 -100000000000000000000.0000 -100000000000000000000.0000 -100000000000000000000.0000    0.0000   0.00 359.0  -1.0  0     0.0000
SPNN   ?    BHE  i S      ? 20241014 0603   56.3600 GAU  6.00e-02 -1.00e+00 -1.00e+00 -1.00e+00 >    0.0000    0.0000    0.0000 -100000000000000000000.0000 -100000000000000000000.0000 -100000000000000000000.0000    0.0000   0.00 359.0  -1.0  0     0.0000
END_PHASE
END_NLLOC

