NLLOC "./loc/volcano.20241014.004634.grid0" "LOCATED" "Location completed."
PUBLIC_ID None
SIGNATURE "MARN+VDAP   obs:./obs/210046654.obs   NLLoc:v7.00.13(17Jan2022)   run:03Aug2025 05h11m24"
COMMENT "Santa Ana, El Salvador"
GRID  100 100 30  -50 -50 -3  1 1 1 PROB_DENSITY
SEARCH OCTREE nInitial 4400 nEvaluated 20000 smallestNodeSide 0.077344/0.077344/0.041193 oct_tree_integral 2.242741e+00 scatter_volume 2.238707e+00
HYPOCENTER  x 1.39492 y 1.54961 z -1.00213  OT 31.7116  ix -1 iy -1 iz -1 MAXIMUM_LIKELIHOOD
GEOGRAPHIC  OT 2024 10 14  00 46 31.711590  Lat 61.312905 Long -152.229068 Depth -1.002131
QUALITY  Pmax 1.17162e+16 MFmin 16.4332 MFmax 16.9448 RMS 0.0597741 Nphs 8 Gap 230.283 Dist 9.7398 Mamp -9.90 0 Mdur -9.90 0
VPVSRATIO  VpVsRatio 1.80527  Npair 4  Diff 1.16
STATISTICS  ExpectX 0.089640 Y 1.540895 Z -0.030364  CovXX 19.0601 XY 1.06421 XZ -5.05158 YY 1.24664 YZ 0.482089 ZZ 4.33892 EllAz1  350.672 Dip1  -20.5651 Len1  1.77103 Az2  213.954 Dip2  -62.735 Len2  3.30318 Len3  8.541182e+00
STAT_GEOG  ExpectLat 61.312827 Long -152.253427 Depth -0.030364
TRANSFORM  SDC LatOrig 61.299000  LongOrig -152.255100  RotCW 0.000000
QML_OriginQuality  assocPhCt 14  usedPhCt 8  assocStaCt -1  usedStaCt 4  depthPhCt -1  stdErr 0.0597741  azGap 230.283  secAzGap 230.283  gtLevel -  minDist 9.7398 maxDist 14.3623 medDist 12.8394
QML_OriginUncertainty  horUnc -1  minHorUnc 1.64972  maxHorUnc 6.63205  azMaxHorUnc 86.5932
QML_ConfidenceEllipsoid  semiMajorAxisLength 8.54118  semiMinorAxisLength 1.77103  semiIntermediateAxisLength 3.30318  majorAxisPlunge -17.1011  majorAxisAzimuth 87.3002  majorAxisRotation 205.539
FOCALMECH  Hyp  61.312905 -152.229068 -1.002131 Mech  0 0 0 mf  0 nObs -1
PHASE ID Ins Cmp On Pha  FM Date     HrMn   Sec     Err  ErrMag    Coda      Amp       Per  >   TTpred    Res       Weight    StaLoc(X  Y         Z)        SDist    SAzim  RAz  RDip RQual    Tcorr 
SPBG   ?    BHZ  i P      u 20241014 0046   34.0400 GAU  3.00e-02 -1.00e+00 -1.00e+00 -1.00e+00 >    2.2935    0.0349    1.5841   -6.2803   -4.4466   -1.0870    9.7398 232.00 233.5  90.6  8     0.0000
SPBG   ?    BHE  i S      ? 20241014 0046   35.5600 GAU  3.00e-02 -1.00e+00 -1.00e+00 -1.00e+00 >    3.8531   -0.0047    1.5691   -6.2803   -4.4466   -1.0870    9.7398 232.00 233.5  90.6  8     0.0000
SPCG   ?    BHZ  i P      d 20241014 0046   34.5000 GAU  3.00e-02 -1.00e+00 -1.00e+00 -1.00e+00 >    2.6786    0.1098    1.0303   12.4523   -0.8581   -1.3290   11.3165 102.28 103.2  92.2  9     0.0000
SPCG   ?    BHE  i S      ? 20241014 0046   36.1800 GAU  3.00e-02 -1.00e+00 -1.00e+00 -1.00e+00 >    4.5000   -0.0316    1.3933   12.4523   -0.8581   -1.3290   11.3165 102.28 103.2  92.2  9     0.0000
SPCL   ?    BHZ  i P      u 20241014 0046   35.0800 GAU  3.00e-02 -1.00e+00 -1.00e+00 -1.00e+00 >    3.3958   -0.0274    1.4294   -4.5526  -11.5234   -1.2740   14.3623 204.46 203.9  89.7  9     0.0000
SPCL   ?    BHE  i S      ? 20241014 0046   37.5400 GAU  6.00e-02 -1.00e+00 -1.00e+00 -1.00e+00 >    5.7049    0.1235    0.9938   -4.5526  -11.5234   -1.2740   14.3623 204.46 203.9  89.7  9     0.0000
SPBL   ?    BHZ  i P      d 20241014 0046   35.7400 GAU  3.00e-02 -1.00e+00 -1.00e+00 -1.00e+00 >    7.8263   -3.7978    0.0000  -34.2389    8.6258   -0.9270   36.3297 281.23 281.9  51.8  9     0.0000
SPBL   ?    BHE  i S      ? 20241014 0046   38.4200 GAU  3.00e-02 -1.00e+00 -1.00e+00 -1.00e+00 >   13.1481   -6.4397    0.0000  -34.2389    8.6258   -0.9270   36.3297 281.23 281.9  51.8  9     0.0000
SPWE   ?    BHZ  i P      u 20241014 0046   35.3400 GAU  3.00e-02 -1.00e+00 -1.00e+00 -1.00e+00 >    0.0000    0.0000    0.0000 -100000000000000000000.0000 -100000000000000000000.0000 -100000000000000000000.0000    0.0000   0.00 359.0  -1.0  0     0.0000
SPNN   ?    BHZ  i P      u 20241014 0046   36.3600 GAU  3.00e-02 -1.00e+00 -1.00e+00 -1.00e+00 >    0.0000    0.0000    0.0000 -100000000000000000000.0000 -100000000000000000000.0000 -100000000000000000000.0000    0.0000   0.00 359.0  -1.0  0     0.0000
STLK   ?    BHZ  i P      ? 20241014 0046   37.4200 GAU  6.00e-02 -1.00e+00 -1.00e+00 -1.00e+00 >    0.0000    0.0000    0.0000 -100000000000000000000.0000 -100000000000000000000.0000 -100000000000000000000.0000    0.0000   0.00 359.0  -1.0  0     0.0000
SPWE   ?    BHN  i S      ? 20241014 0046   37.8600 GAU  3.00e-02 -1.00e+00 -1.00e+00 -1.00e+00 >    0.0000    0.0000    0.0000 -100000000000000000000.0000 -100000000000000000000.0000 -100000000000000000000.0000    0.0000   0.00 359.0  -1.0  0     0.0000
SPNN   ?    BHN  i S      ? 20241014 0046   39.7400 GAU  3.00e-02 -1.00e+00 -1.00e+00 -1.00e+00 >    0.0000    0.0000    0.0000 -100000000000000000000.0000 -100000000000000000000.0000 -100000000000000000000.0000    0.0000   0.00 359.0  -1.0  0     0.0000
STLK   ?    BHN  i S      ? 20241014 0046   41.2400 GAU  3.00e-02 -1.00e+00 -1.00e+00 -1.00e+00 >    0.0000    0.0000    0.0000 -100000000000000000000.0000 -100000000000000000000.0000 -100000000000000000000.0000    0.0000   0.00 359.0  -1.0  0     0.0000
END_PHASE
END_NLLOC

