NLLOC "./loc/volcano.20241014.160222.grid0" "LOCATED" "Location completed."
PUBLIC_ID None
SIGNATURE "MARN+VDAP   obs:./obs/210046809.obs   NLLoc:v7.00.13(17Jan2022)   run:03Aug2025 05h11m24"
COMMENT "Santa Ana, El Salvador"
GRID  100 100 30  -50 -50 -3  1 1 1 PROB_DENSITY
SEARCH OCTREE nInitial 4400 nEvaluated 20000 smallestNodeSide 0.038672/0.038672/0.020597 oct_tree_integral 3.206328e-01 scatter_volume 3.178600e-01
HYPOCENTER  x -0.983398 y -3.26504 z 4.81641  OT 21.2137  ix -1 iy -1 iz -1 MAXIMUM_LIKELIHOOD
GEOGRAPHIC  OT 2024 10 14  16 02 21.213674  Lat 61.269703 Long -152.273439 Depth 4.816406
QUALITY  Pmax 5.33714e+17 MFmin 18.2323 MFmax 18.3787 RMS 0.0219179 Nphs 8 Gap 182.419 Dist 5.42707 Mamp -9.90 0 Mdur -9.90 0
VPVSRATIO  VpVsRatio 1.37301  Npair 4  Diff 0.5
STATISTICS  ExpectX -0.964553 Y -3.300278 Z 4.797678  CovXX 0.0677946 XY 0.0146671 XZ -0.0331222 YY 0.10931 YZ 0.018952 ZZ 0.400705 EllAz1  288.541 Dip1  -6.25198 Len1  0.456553 Az2  18.7009 Dip2  -1.46363 Len2  0.633709 Len3  1.195677e+00
STAT_GEOG  ExpectLat 61.269386 Long -152.273088 Depth 4.797678
TRANSFORM  SDC LatOrig 61.299000  LongOrig -152.255100  RotCW 0.000000
QML_OriginQuality  assocPhCt 14  usedPhCt 8  assocStaCt -1  usedStaCt 4  depthPhCt -1  stdErr 0.0219179  azGap 182.419  secAzGap 182.419  gtLevel -  minDist 5.42707 maxDist 13.6496 medDist 8.0099
QML_OriginUncertainty  horUnc -1  minHorUnc 0.381067  maxHorUnc 0.511986  azMaxHorUnc 17.6221
QML_ConfidenceEllipsoid  semiMajorAxisLength 1.19568  semiMinorAxisLength 0.456553  semiIntermediateAxisLength 0.633709  majorAxisPlunge -83.5777  majorAxisAzimuth 121.821  majorAxisRotation 77.1193
FOCALMECH  Hyp  61.269703 -152.273439 4.816406 Mech  0 0 0 mf  0 nObs -1
PHASE ID Ins Cmp On Pha  FM Date     HrMn   Sec     Err  ErrMag    Coda      Amp       Per  >   TTpred    Res       Weight    StaLoc(X  Y         Z)        SDist    SAzim  RAz  RDip RQual    Tcorr 
SPBG   ?    BHZ  i P      d 20241014 1602   22.9600 GAU  3.00e-02 -1.00e+00 -1.00e+00 -1.00e+00 >    1.7090    0.0373    1.2415   -6.2803   -4.4466   -1.0870    5.4271 257.42 256.0 130.5  8     0.0000
SPBG   ?    BHE  i S      ? 20241014 1602   24.0600 GAU  3.00e-02 -1.00e+00 -1.00e+00 -1.00e+00 >    2.8711   -0.0248    1.3155   -6.2803   -4.4466   -1.0870    5.4271 257.42 256.0 130.5  8     0.0000
SPCN   ?    BHZ  i P      d 20241014 1602   23.0800 GAU  3.00e-02 -1.00e+00 -1.00e+00 -1.00e+00 >    1.8863   -0.0200    1.3400    3.8137   -8.3946   -0.7333    7.0232 136.92 137.3 119.8  9     0.0000
SPCN   ?    BHN  i S      ? 20241014 1602   24.4000 GAU  3.00e-02 -1.00e+00 -1.00e+00 -1.00e+00 >    3.1690    0.0173    1.3571    3.8137   -8.3946   -0.7333    7.0232 136.92 137.3 119.8  9     0.0000
SPCL   ?    BHZ  i P      d 20241014 1602   23.5200 GAU  3.00e-02 -1.00e+00 -1.00e+00 -1.00e+00 >    2.3196   -0.0133    1.3662   -4.5526  -11.5234   -1.2740    8.9966 203.37 202.5 110.5  9     0.0000
SPCL   ?    BHN  i S      ? 20241014 1602   25.1200 GAU  3.00e-02 -1.00e+00 -1.00e+00 -1.00e+00 >    3.8969    0.0094    1.3798   -4.5526  -11.5234   -1.2740    8.9966 203.37 202.5 110.5  9     0.0000
SPCG   ?    BHZ  i P      u 20241014 1602   23.7600 GAU  3.00e-02 -1.00e+00 -1.00e+00 -1.00e+00 >    3.1691   -0.6227    0.0000   12.4523   -0.8581   -1.3290   13.6496  79.84  78.9  99.7  9     0.0000
SPCG   ?    BHN  i S      ? 20241014 1602   25.3000 GAU  3.00e-02 -1.00e+00 -1.00e+00 -1.00e+00 >    5.3240   -1.2377    0.0000   12.4523   -0.8581   -1.3290   13.6496  79.84  78.9  99.7  9     0.0000
SPU    ?    BHZ  i P      ? 20241014 1602   24.1200 GAU  3.00e-02 -1.00e+00 -1.00e+00 -1.00e+00 >    0.0000    0.0000    0.0000 -100000000000000000000.0000 -100000000000000000000.0000 -100000000000000000000.0000    0.0000   0.00 359.0  -1.0  0     0.0000
SPWE   ?    BHZ  i P      u 20241014 1602   24.5600 GAU  3.00e-02 -1.00e+00 -1.00e+00 -1.00e+00 >    0.0000    0.0000    0.0000 -100000000000000000000.0000 -100000000000000000000.0000 -100000000000000000000.0000    0.0000   0.00 359.0  -1.0  0     0.0000
SPU    ?    BHN  i S      ? 20241014 1602   26.2400 GAU  3.00e-02 -1.00e+00 -1.00e+00 -1.00e+00 >    0.0000    0.0000    0.0000 -100000000000000000000.0000 -100000000000000000000.0000 -100000000000000000000.0000    0.0000   0.00 359.0  -1.0  0     0.0000
SPNN   ?    BHZ  i P      u 20241014 1602   26.3000 GAU  3.00e-02 -1.00e+00 -1.00e+00 -1.00e+00 >    0.0000    0.0000    0.0000 -100000000000000000000.0000 -100000000000000000000.0000 -100000000000000000000.0000    0.0000   0.00 359.0  -1.0  0     0.0000
SPWE   ?    BHE  i S      ? 20241014 1602   26.9600 GAU  6.00e-02 -1.00e+00 -1.00e+00 -1.00e+00 >    0.0000    0.0000    0.0000 -100000000000000000000.0000 -100000000000000000000.0000 -100000000000000000000.0000    0.0000   0.00 359.0  -1.0  0     0.0000
SPNN   ?    BHN  i S      ? 20241014 1602   29.8200 GAU  3.00e-02 -1.00e+00 -1.00e+00 -1.00e+00 >    0.0000    0.0000    0.0000 -100000000000000000000.0000 -100000000000000000000.0000 -100000000000000000000.0000    0.0000   0.00 359.0  -1.0  0     0.0000
END_PHASE
END_NLLOC

