NLLOC "./loc/taka.20230212.221422.grid0" "LOCATED" "Location completed."
PUBLIC_ID None
SIGNATURE "Alaska Volcano Observatory   obs:./obs/6000jnqh.obs   NLLoc:v7.00.13(17Jan2022)   run:07Aug2025 00h07m00"
COMMENT "Takawangha earthquake swarm, February 12, 2023"
GRID  101 101 51  -50.5 -50.5 -5  1 1 1 PROB_DENSITY
SEARCH OCTREE nInitial 4400 nEvaluated 20016 smallestNodeSide 0.019531/0.019531/0.017756 oct_tree_integral 6.725349e-02 scatter_volume 6.650260e-02
HYPOCENTER  x 1.78516 y -0.285156 z 1.44531  OT 21.1936  ix -1 iy -1 iz -1 MAXIMUM_LIKELIHOOD
GEOGRAPHIC  OT 2023 02 12  22 14 21.193615  Lat 51.870437 Long -177.980081 Depth 1.445313
QUALITY  Pmax 1.29249e+25 MFmin 24.9006 MFmax 25.1604 RMS 0.0399654 Nphs 10 Gap 125.164 Dist 3.19851 Mamp -9.90 0 Mdur -9.90 0
VPVSRATIO  VpVsRatio 2  Npair 4  Diff 1.54
STATISTICS  ExpectX 1.726750 Y -0.482218 Z 1.838557  CovXX 0.0527036 XY 0.183765 XZ -0.160232 YY 0.887273 YZ -0.578086 ZZ 0.784596 EllAz1  98.1946 Dip1  5.6204 Len1  0.190766 Az2  181.964 Dip2  -47.7979 Len2  0.950079 Len3  2.269075e+00
STAT_GEOG  ExpectLat 51.868667 Long -177.980929 Depth 1.838557
TRANSFORM  SDC LatOrig 51.873000  LongOrig -178.006000  RotCW 0.000000
QML_OriginQuality  assocPhCt 39  usedPhCt 10  assocStaCt -1  usedStaCt 6  depthPhCt -1  stdErr 0.0399654  azGap 125.164  secAzGap 182.125  gtLevel -  minDist 3.19851 maxDist 13.9377 medDist 11.2607
QML_OriginUncertainty  horUnc -1  minHorUnc 0.17965  maxHorUnc 1.45934  azMaxHorUnc 11.8839
QML_ConfidenceEllipsoid  semiMajorAxisLength 2.26907  semiMinorAxisLength 0.190766  semiIntermediateAxisLength 0.950079  majorAxisPlunge -41.6493  majorAxisAzimuth 13.2158  majorAxisRotation 48.5668
FOCALMECH  Hyp  51.870437 -177.980081 1.445313 Mech  0 0 0 mf  0 nObs -1
PHASE ID Ins Cmp On Pha  FM Date     HrMn   Sec     Err  ErrMag    Coda      Amp       Per  >   TTpred    Res       Weight    StaLoc(X  Y         Z)        SDist    SAzim  RAz  RDip RQual    Tcorr 
TAFP   ?    BHN  ? S      ? 20230212 2214   22.8600 GAU  0.00e+00 -1.00e+00 -1.00e+00 -1.00e+00 >    1.6621    0.0042    1.3077    1.4248    2.8930   -0.4400    3.1985 353.53 354.9 111.2  8     0.0000
TASE   ?    BHZ  ? P      ? 20230212 2214   22.6900 GAU  0.00e+00 -1.00e+00 -1.00e+00 -1.00e+00 >    1.4606    0.0357    1.1627   -2.2738   -4.3509   -0.6820    5.7451 224.95 225.5 102.4  8     0.0000
TASE   ?    BHE  ? S      ? 20230212 2214   23.6900 GAU  0.00e+00 -1.00e+00 -1.00e+00 -1.00e+00 >    2.5269   -0.0305    1.2309   -2.2738   -4.3509   -0.6820    5.7451 224.95 225.5 102.4  8     0.0000
TANO   ?    BHZ  ? P      ? 20230212 2214   24.1600 GAU  0.00e+00 -1.00e+00 -1.00e+00 -1.00e+00 >    2.5675    0.3989    0.0000   -8.0407    4.6291   -0.2690   10.9863 296.57 295.8  86.3  9     0.0000
TASO   ?    BHZ  ? P      ? 20230212 2214   23.8800 GAU  0.00e+00 -1.00e+00 -1.00e+00 -1.00e+00 >    2.7311   -0.0447    1.1364   -9.5959   -2.1643   -0.6900   11.5352 260.62 259.3  86.6  9     0.0000
TASO   ?    BHN  ? S      ? 20230212 2214   25.9400 GAU  0.00e+00 -1.00e+00 -1.00e+00 -1.00e+00 >    4.7248    0.0216    1.2514   -9.5959   -2.1643   -0.6900   11.5352 260.62 259.3  86.6  9     0.0000
TAPA   ?    BHZ  ? P      ? 20230212 2214   24.2400 GAU  0.00e+00 -1.00e+00 -1.00e+00 -1.00e+00 >    3.0454    0.0010    1.3111   13.1768   -6.5209   -0.6400   12.9867 118.70 117.4  82.2  9     0.0000
TAPA   ?    BHN  ? S      ? 20230212 2214   26.4500 GAU  0.00e+00 -1.00e+00 -1.00e+00 -1.00e+00 >    5.2685   -0.0121    1.2850   13.1768   -6.5209   -0.6400   12.9867 118.70 117.4  82.2  9     0.0000
TAFL   ?    BHZ  ? P      ? 20230212 2214   24.3100 GAU  0.00e+00 -1.00e+00 -1.00e+00 -1.00e+00 >    3.2274   -0.1110    0.4990    7.3240  -13.0750   -0.1860   13.9377 156.58 156.1  79.2  9     0.0000
TAFL   ?    BHN  ? S      ? 20230212 2214   26.8500 GAU  0.00e+00 -1.00e+00 -1.00e+00 -1.00e+00 >    5.5835    0.0729    0.8157    7.3240  -13.0750   -0.1860   13.9377 156.58 156.1  79.2  9     0.0000
KIMD   ?    BHZ  ? P      ? 20230212 2214   30.7600 GAU  0.00e+00 -1.00e+00 -1.00e+00 -1.00e+00 >    0.0000    0.0000    0.0000   53.1514  -12.4070   -0.1730    0.0000   0.00 359.0  -1.0  0     0.0000
GANO   ?    BHZ  ? Pg     ? 20230212 2214   30.9200 GAU  0.00e+00 -1.00e+00 -1.00e+00 -1.00e+00 >    0.0000    0.0000    0.0000  -55.1165   -5.9867   -0.4510    0.0000   0.00 359.0  -1.0  0     0.0000
KIWB   ?    BHZ  ? P      ? 20230212 2214   31.2600 GAU  0.00e+00 -1.00e+00 -1.00e+00 -1.00e+00 >    0.0000    0.0000    0.0000   58.9026   -2.2255   -0.2340    0.0000   0.00 359.0  -1.0  0     0.0000
KIKV   ?    BHZ  ? P      ? 20230212 2214   31.3100 GAU  0.00e+00 -1.00e+00 -1.00e+00 -1.00e+00 >    0.0000    0.0000    0.0000   57.5314    0.6114   -0.4030    0.0000   0.00 359.0  -1.0  0     0.0000
KICM   ?    BHZ  ? P      ? 20230212 2214   31.3400 GAU  0.00e+00 -1.00e+00 -1.00e+00 -1.00e+00 >    0.0000    0.0000    0.0000   55.7861    5.1143   -0.1730    0.0000   0.00 359.0  -1.0  0     0.0000
KINC   ?    BHZ  ? P      ? 20230212 2214   31.9400 GAU  0.00e+00 -1.00e+00 -1.00e+00 -1.00e+00 >    0.0000    0.0000    0.0000   60.4648    6.5064   -0.2030    0.0000   0.00 359.0  -1.0  0     0.0000
KIRH   ?    BHZ  ? P      ? 20230212 2214   32.1500 GAU  0.00e+00 -1.00e+00 -1.00e+00 -1.00e+00 >    0.0000    0.0000    0.0000   62.8132    2.9833   -0.3210    0.0000   0.00 359.0  -1.0  0     0.0000
ADK    ?    BHZ  ? Pg     ? 20230212 2214   36.3700 GAU  0.00e+00 -1.00e+00 -1.00e+00 -1.00e+00 >    0.0000    0.0000    0.0000   91.0255    1.0349   -0.1300    0.0000   0.00 359.0  -1.0  0     0.0000
ADAG   ?    BHZ  ? P      ? 20230212 2214   37.6800 GAU  0.00e+00 -1.00e+00 -1.00e+00 -1.00e+00 >    0.0000    0.0000    0.0000   96.7033   11.9111   -0.2930    0.0000   0.00 359.0  -1.0  0     0.0000
KIMD   ?    BHN  ? S      ? 20230212 2214   37.7700 GAU  0.00e+00 -1.00e+00 -1.00e+00 -1.00e+00 >    0.0000    0.0000    0.0000   53.1514  -12.4070   -0.1730    0.0000   0.00 359.0  -1.0  0     0.0000
KIWB   ?    BHN  ? S      ? 20230212 2214   38.0200 GAU  0.00e+00 -1.00e+00 -1.00e+00 -1.00e+00 >    0.0000    0.0000    0.0000   58.9026   -2.2255   -0.2340    0.0000   0.00 359.0  -1.0  0     0.0000
KIKV   ?    BHN  ? S      ? 20230212 2214   38.9300 GAU  0.00e+00 -1.00e+00 -1.00e+00 -1.00e+00 >    0.0000    0.0000    0.0000   57.5314    0.6114   -0.4030    0.0000   0.00 359.0  -1.0  0     0.0000
ETKA   ?    BHZ  ? P      ? 20230212 2214   39.0700 GAU  0.00e+00 -1.00e+00 -1.00e+00 -1.00e+00 >    0.0000    0.0000    0.0000  110.2327   -1.2385   -0.2480    0.0000   0.00 359.0  -1.0  0     0.0000
GANE   ?    BHN  ? S      ? 20230212 2214   39.9100 GAU  0.00e+00 -1.00e+00 -1.00e+00 -1.00e+00 >    0.0000    0.0000    0.0000  -53.2422   -6.1440   -0.3000    0.0000   0.00 359.0  -1.0  0     0.0000
KIRH   ?    BHE  ? S      ? 20230212 2214   40.1600 GAU  0.00e+00 -1.00e+00 -1.00e+00 -1.00e+00 >    0.0000    0.0000    0.0000   62.8132    2.9833   -0.3210    0.0000   0.00 359.0  -1.0  0     0.0000
GAKI   ?    BHN  ? S      ? 20230212 2214   40.7700 GAU  0.00e+00 -1.00e+00 -1.00e+00 -1.00e+00 >    0.0000    0.0000    0.0000  -55.8450  -35.5643   -0.0990    0.0000   0.00 359.0  -1.0  0     0.0000
GSSP   ?    BHZ  ? P      ? 20230212 2214   41.9500 GAU  0.00e+00 -1.00e+00 -1.00e+00 -1.00e+00 >    0.0000    0.0000    0.0000 -100000000000000000000.0000 -100000000000000000000.0000 -100000000000000000000.0000    0.0000   0.00 359.0  -1.0  0     0.0000
GSCK   ?    BHZ  ? P      ? 20230212 2214   42.1300 GAU  0.00e+00 -1.00e+00 -1.00e+00 -1.00e+00 >    0.0000    0.0000    0.0000 -100000000000000000000.0000 -100000000000000000000.0000 -100000000000000000000.0000    0.0000   0.00 359.0  -1.0  0     0.0000
GSMY   ?    BHZ  ? P      ? 20230212 2214   42.9800 GAU  0.00e+00 -1.00e+00 -1.00e+00 -1.00e+00 >    0.0000    0.0000    0.0000 -100000000000000000000.0000 -100000000000000000000.0000 -100000000000000000000.0000    0.0000   0.00 359.0  -1.0  0     0.0000
GSTR   ?    BHZ  ? Pn     ? 20230212 2214   43.7300 GAU  0.00e+00 -1.00e+00 -1.00e+00 -1.00e+00 >    0.0000    0.0000    0.0000 -100000000000000000000.0000 -100000000000000000000.0000 -100000000000000000000.0000    0.0000   0.00 359.0  -1.0  0     0.0000
GSIG   ?    BHZ  ? P      ? 20230212 2214   44.0500 GAU  0.00e+00 -1.00e+00 -1.00e+00 -1.00e+00 >    0.0000    0.0000    0.0000 -100000000000000000000.0000 -100000000000000000000.0000 -100000000000000000000.0000    0.0000   0.00 359.0  -1.0  0     0.0000
CEPE   ?    BHZ  ? P      ? 20230212 2214   47.4100 GAU  0.00e+00 -1.00e+00 -1.00e+00 -1.00e+00 >    0.0000    0.0000    0.0000 -100000000000000000000.0000 -100000000000000000000.0000 -100000000000000000000.0000    0.0000   0.00 359.0  -1.0  0     0.0000
CESW   ?    BHZ  ? P      ? 20230212 2214   48.1300 GAU  0.00e+00 -1.00e+00 -1.00e+00 -1.00e+00 >    0.0000    0.0000    0.0000 -100000000000000000000.0000 -100000000000000000000.0000 -100000000000000000000.0000    0.0000   0.00 359.0  -1.0  0     0.0000
CEAP   ?    BHZ  ? Pn     ? 20230212 2214   48.2300 GAU  0.00e+00 -1.00e+00 -1.00e+00 -1.00e+00 >    0.0000    0.0000    0.0000 -100000000000000000000.0000 -100000000000000000000.0000 -100000000000000000000.0000    0.0000   0.00 359.0  -1.0  0     0.0000
AMKA   ?    BHZ  ? Pn     ? 20230212 2214   51.3400 GAU  0.00e+00 -1.00e+00 -1.00e+00 -1.00e+00 >    0.0000    0.0000    0.0000 -100000000000000000000.0000 -100000000000000000000.0000 -100000000000000000000.0000    0.0000   0.00 359.0  -1.0  0     0.0000
ETKA   ?    BHN  ? S      ? 20230212 2214   52.5800 GAU  0.00e+00 -1.00e+00 -1.00e+00 -1.00e+00 >    0.0000    0.0000    0.0000  110.2327   -1.2385   -0.2480    0.0000   0.00 359.0  -1.0  0     0.0000
GSSP   ?    BHN  ? S      ? 20230212 2214   57.9200 GAU  0.00e+00 -1.00e+00 -1.00e+00 -1.00e+00 >    0.0000    0.0000    0.0000 -100000000000000000000.0000 -100000000000000000000.0000 -100000000000000000000.0000    0.0000   0.00 359.0  -1.0  0     0.0000
GSMY   ?    BHE  ? S      ? 20230212 2215    0.4500 GAU  0.00e+00 -1.00e+00 -1.00e+00 -1.00e+00 >    0.0000    0.0000    0.0000 -100000000000000000000.0000 -100000000000000000000.0000 -100000000000000000000.0000    0.0000   0.00 359.0  -1.0  0     0.0000
GSIG   ?    BHN  ? S      ? 20230212 2215    1.8200 GAU  0.00e+00 -1.00e+00 -1.00e+00 -1.00e+00 >    0.0000    0.0000    0.0000 -100000000000000000000.0000 -100000000000000000000.0000 -100000000000000000000.0000    0.0000   0.00 359.0  -1.0  0     0.0000
END_PHASE
END_NLLOC

