NLLOC "./loc/taka.20230212.055131.grid0" "LOCATED" "Location completed."
PUBLIC_ID None
SIGNATURE "Alaska Volcano Observatory   obs:./obs/6000jnp5.obs   NLLoc:v7.00.13(17Jan2022)   run:07Aug2025 00h06m59"
COMMENT "Takawangha earthquake swarm, February 12, 2023"
GRID  101 101 51  -50.5 -50.5 -5  1 1 1 PROB_DENSITY
SEARCH OCTREE nInitial 4400 nEvaluated 20000 smallestNodeSide 0.019531/0.019531/0.017756 oct_tree_integral 6.086585e-02 scatter_volume 6.086585e-02
HYPOCENTER  x 1.63867 y -2.36523 z 3.51385  OT 30.437  ix -1 iy -1 iz -1 MAXIMUM_LIKELIHOOD
GEOGRAPHIC  OT 2023 02 12  05 51 30.437004  Lat 51.851745 Long -177.982213 Depth 3.513849
QUALITY  Pmax 3.25031e+27 MFmin 27.7833 MFmax 27.8314 RMS 0.0368042 Nphs 11 Gap 112.136 Dist 4.38756 Mamp -9.90 0 Mdur -9.90 0
VPVSRATIO  VpVsRatio 2  Npair 5  Diff 1.35
STATISTICS  ExpectX 1.565432 Y -2.362716 Z 3.653475  CovXX 0.0326174 XY 0.00356766 XZ -0.0575067 YY 0.064696 YZ -0.00374099 ZZ 0.21512 EllAz1  92.9223 Dip1  16.0301 Len1  0.236846 Az2  182.265 Dip2  -2.288 Len2  0.477857 Len3  9.046800e-01
STAT_GEOG  ExpectLat 51.851767 Long -177.983276 Depth 3.653475
TRANSFORM  SDC LatOrig 51.873000  LongOrig -178.006000  RotCW 0.000000
QML_OriginQuality  assocPhCt 47  usedPhCt 11  assocStaCt -1  usedStaCt 6  depthPhCt -1  stdErr 0.0368042  azGap 112.136  secAzGap 112.136  gtLevel -  minDist 4.38756 maxDist 12.2637 medDist 11.5892
QML_OriginUncertainty  horUnc -1  minHorUnc 0.272247  maxHorUnc 0.386914  azMaxHorUnc 6.27015
QML_ConfidenceEllipsoid  semiMajorAxisLength 0.90468  semiMinorAxisLength 0.236846  semiIntermediateAxisLength 0.477857  majorAxisPlunge -73.7987  majorAxisAzimuth 84.3607  majorAxisRotation 276.959
FOCALMECH  Hyp  51.851745 -177.982213 3.513849 Mech  0 0 0 mf  0 nObs -1
PHASE ID Ins Cmp On Pha  FM Date     HrMn   Sec     Err  ErrMag    Coda      Amp       Per  >   TTpred    Res       Weight    StaLoc(X  Y         Z)        SDist    SAzim  RAz  RDip RQual    Tcorr 
TASE   ?    BHZ  ? P      ? 20230212 0551   31.8200 GAU  0.00e+00 -1.00e+00 -1.00e+00 -1.00e+00 >    1.3845   -0.0015    1.4799   -2.2738   -4.3509   -0.6820    4.3876 243.09 244.2 127.2  9     0.0000
TASE   ?    BHN  ? S      ? 20230212 0551   32.8300 GAU  0.00e+00 -1.00e+00 -1.00e+00 -1.00e+00 >    2.3952   -0.0022    1.4797   -2.2738   -4.3509   -0.6820    4.3876 243.09 244.2 127.2  9     0.0000
TAFP   ?    BHZ  ? P      ? 20230212 0551   32.0100 GAU  0.00e+00 -1.00e+00 -1.00e+00 -1.00e+00 >    1.5296    0.0434    1.2275    1.4248    2.8930   -0.4400    5.2626 357.67 358.2 114.4  8     0.0000
TAFP   ?    BHE  ? S      ? 20230212 0551   33.0700 GAU  0.00e+00 -1.00e+00 -1.00e+00 -1.00e+00 >    2.6463   -0.0133    1.4592    1.4248    2.8930   -0.4400    5.2626 357.67 358.2 114.4  8     0.0000
TASO   ?    BHZ  ? P      ? 20230212 0551   32.7700 GAU  0.00e+00 -1.00e+00 -1.00e+00 -1.00e+00 >    2.6855   -0.3525    0.0132   -9.5959   -2.1643   -0.6900   11.2364 271.02 272.8  98.0  9     0.0000
TASO   ?    BHE  ? S      ? 20230212 0551   34.9000 GAU  0.00e+00 -1.00e+00 -1.00e+00 -1.00e+00 >    4.6458   -0.1828    0.1208   -9.5959   -2.1643   -0.6900   11.2364 271.02 272.8  98.0  9     0.0000
TANO   ?    BHZ  ? P      ? 20230212 0551   33.1900 GAU  0.00e+00 -1.00e+00 -1.00e+00 -1.00e+00 >    2.7619   -0.0089    1.4712   -8.0407    4.6291   -0.2690   11.9420 305.85 303.7  94.8  9     0.0000
TAFL   ?    BHZ  ? P      ? 20230212 0551   33.3100 GAU  0.00e+00 -1.00e+00 -1.00e+00 -1.00e+00 >    2.8275    0.0455    1.2047    7.3240  -13.0750   -0.1860   12.1252 152.04 152.5  93.9  9     0.0000
TAFL   ?    BHN  ? S      ? 20230212 0551   35.6700 GAU  0.00e+00 -1.00e+00 -1.00e+00 -1.00e+00 >    4.8916    0.3414    0.0001    7.3240  -13.0750   -0.1860   12.1252 152.04 152.5  93.9  9     0.0000
TAPA   ?    BHZ  ? P      ? 20230212 0551   33.2700 GAU  0.00e+00 -1.00e+00 -1.00e+00 -1.00e+00 >    2.8943   -0.0613    1.0658   13.1768   -6.5209   -0.6400   12.2637 109.81 109.7  95.3  9     0.0000
TAPA   ?    BHN  ? S      ? 20230212 0551   35.4400 GAU  0.00e+00 -1.00e+00 -1.00e+00 -1.00e+00 >    5.0071   -0.0041    1.4779   13.1768   -6.5209   -0.6400   12.2637 109.81 109.7  95.3  9     0.0000
KIMD   ?    BHZ  ? P      ? 20230212 0551   39.8100 GAU  0.00e+00 -1.00e+00 -1.00e+00 -1.00e+00 >    0.0000    0.0000    0.0000   53.1514  -12.4070   -0.1730    0.0000   0.00 359.0  -1.0  0     0.0000
GANE   ?    BHZ  ? P      ? 20230212 0551   39.9000 GAU  0.00e+00 -1.00e+00 -1.00e+00 -1.00e+00 >    0.0000    0.0000    0.0000  -53.2422   -6.1440   -0.3000    0.0000   0.00 359.0  -1.0  0     0.0000
GALA   ?    BHZ  ? P      ? 20230212 0551   40.1000 GAU  0.00e+00 -1.00e+00 -1.00e+00 -1.00e+00 >    0.0000    0.0000    0.0000  -52.9352  -12.5044   -0.3130    0.0000   0.00 359.0  -1.0  0     0.0000
KICM   ?    BHZ  ? P      ? 20230212 0551   40.1600 GAU  0.00e+00 -1.00e+00 -1.00e+00 -1.00e+00 >    0.0000    0.0000    0.0000   55.7861    5.1143   -0.1730    0.0000   0.00 359.0  -1.0  0     0.0000
GANO   ?    BHZ  ? Pg     ? 20230212 0551   40.2100 GAU  0.00e+00 -1.00e+00 -1.00e+00 -1.00e+00 >    0.0000    0.0000    0.0000  -55.1165   -5.9867   -0.4510    0.0000   0.00 359.0  -1.0  0     0.0000
KIKV   ?    BHZ  ? P      ? 20230212 0551   40.3800 GAU  0.00e+00 -1.00e+00 -1.00e+00 -1.00e+00 >    0.0000    0.0000    0.0000   57.5314    0.6114   -0.4030    0.0000   0.00 359.0  -1.0  0     0.0000
KIWB   ?    BHZ  ? P      ? 20230212 0551   40.5100 GAU  0.00e+00 -1.00e+00 -1.00e+00 -1.00e+00 >    0.0000    0.0000    0.0000   58.9026   -2.2255   -0.2340    0.0000   0.00 359.0  -1.0  0     0.0000
GASW   ?    BHZ  ? P      ? 20230212 0551   40.5300 GAU  0.00e+00 -1.00e+00 -1.00e+00 -1.00e+00 >    0.0000    0.0000    0.0000  -58.6407  -10.6122   -0.2520    0.0000   0.00 359.0  -1.0  0     0.0000
KIRH   ?    BHZ  ? P      ? 20230212 0551   41.3700 GAU  0.00e+00 -1.00e+00 -1.00e+00 -1.00e+00 >    0.0000    0.0000    0.0000   62.8132    2.9833   -0.3210    0.0000   0.00 359.0  -1.0  0     0.0000
GAKI   ?    BHZ  ? P      ? 20230212 0551   41.4000 GAU  0.00e+00 -1.00e+00 -1.00e+00 -1.00e+00 >    0.0000    0.0000    0.0000  -55.8450  -35.5643   -0.0990    0.0000   0.00 359.0  -1.0  0     0.0000
ADK    ?    BHZ  ? P      ? 20230212 0551   45.3400 GAU  0.00e+00 -1.00e+00 -1.00e+00 -1.00e+00 >    0.0000    0.0000    0.0000   91.0255    1.0349   -0.1300    0.0000   0.00 359.0  -1.0  0     0.0000
ADAG   ?    BHZ  ? P      ? 20230212 0551   46.3900 GAU  0.00e+00 -1.00e+00 -1.00e+00 -1.00e+00 >    0.0000    0.0000    0.0000   96.7033   11.9111   -0.2930    0.0000   0.00 359.0  -1.0  0     0.0000
KIMD   ?    BHN  ? S      ? 20230212 0551   46.5900 GAU  0.00e+00 -1.00e+00 -1.00e+00 -1.00e+00 >    0.0000    0.0000    0.0000   53.1514  -12.4070   -0.1730    0.0000   0.00 359.0  -1.0  0     0.0000
GALA   ?    BHN  ? S      ? 20230212 0551   47.4200 GAU  0.00e+00 -1.00e+00 -1.00e+00 -1.00e+00 >    0.0000    0.0000    0.0000  -52.9352  -12.5044   -0.3130    0.0000   0.00 359.0  -1.0  0     0.0000
KIKV   ?    BHN  ? S      ? 20230212 0551   47.5700 GAU  0.00e+00 -1.00e+00 -1.00e+00 -1.00e+00 >    0.0000    0.0000    0.0000   57.5314    0.6114   -0.4030    0.0000   0.00 359.0  -1.0  0     0.0000
KIWB   ?    BHE  ? S      ? 20230212 0551   47.8200 GAU  0.00e+00 -1.00e+00 -1.00e+00 -1.00e+00 >    0.0000    0.0000    0.0000   58.9026   -2.2255   -0.2340    0.0000   0.00 359.0  -1.0  0     0.0000
KICM   ?    BHE  ? S      ? 20230212 0551   48.2000 GAU  0.00e+00 -1.00e+00 -1.00e+00 -1.00e+00 >    0.0000    0.0000    0.0000   55.7861    5.1143   -0.1730    0.0000   0.00 359.0  -1.0  0     0.0000
ETKA   ?    BHZ  ? P      ? 20230212 0551   48.3900 GAU  0.00e+00 -1.00e+00 -1.00e+00 -1.00e+00 >    0.0000    0.0000    0.0000  110.2327   -1.2385   -0.2480    0.0000   0.00 359.0  -1.0  0     0.0000
GASW   ?    BHE  ? S      ? 20230212 0551   48.5300 GAU  0.00e+00 -1.00e+00 -1.00e+00 -1.00e+00 >    0.0000    0.0000    0.0000  -58.6407  -10.6122   -0.2520    0.0000   0.00 359.0  -1.0  0     0.0000
KINC   ?    BHN  ? S      ? 20230212 0551   48.9100 GAU  0.00e+00 -1.00e+00 -1.00e+00 -1.00e+00 >    0.0000    0.0000    0.0000   60.4648    6.5064   -0.2030    0.0000   0.00 359.0  -1.0  0     0.0000
KIRH   ?    BHN  ? S      ? 20230212 0551   49.2300 GAU  0.00e+00 -1.00e+00 -1.00e+00 -1.00e+00 >    0.0000    0.0000    0.0000   62.8132    2.9833   -0.3210    0.0000   0.00 359.0  -1.0  0     0.0000
GAKI   ?    BHE  ? S      ? 20230212 0551   49.7900 GAU  0.00e+00 -1.00e+00 -1.00e+00 -1.00e+00 >    0.0000    0.0000    0.0000  -55.8450  -35.5643   -0.0990    0.0000   0.00 359.0  -1.0  0     0.0000
GSSP   ?    BHZ  ? P      ? 20230212 0551   51.1600 GAU  0.00e+00 -1.00e+00 -1.00e+00 -1.00e+00 >    0.0000    0.0000    0.0000 -100000000000000000000.0000 -100000000000000000000.0000 -100000000000000000000.0000    0.0000   0.00 359.0  -1.0  0     0.0000
GSCK   ?    BHZ  ? P      ? 20230212 0551   51.2200 GAU  0.00e+00 -1.00e+00 -1.00e+00 -1.00e+00 >    0.0000    0.0000    0.0000 -100000000000000000000.0000 -100000000000000000000.0000 -100000000000000000000.0000    0.0000   0.00 359.0  -1.0  0     0.0000
GSIG   ?    BHZ  ? P      ? 20230212 0551   53.8800 GAU  0.00e+00 -1.00e+00 -1.00e+00 -1.00e+00 >    0.0000    0.0000    0.0000 -100000000000000000000.0000 -100000000000000000000.0000 -100000000000000000000.0000    0.0000   0.00 359.0  -1.0  0     0.0000
CEPE   ?    BHZ  ? P      ? 20230212 0551   56.0000 GAU  0.00e+00 -1.00e+00 -1.00e+00 -1.00e+00 >    0.0000    0.0000    0.0000 -100000000000000000000.0000 -100000000000000000000.0000 -100000000000000000000.0000    0.0000   0.00 359.0  -1.0  0     0.0000
ADK    ?    BH2  ? S      ? 20230212 0551   56.0900 GAU  0.00e+00 -1.00e+00 -1.00e+00 -1.00e+00 >    0.0000    0.0000    0.0000   91.0255    1.0349   -0.1300    0.0000   0.00 359.0  -1.0  0     0.0000
CESW   ?    BHZ  ? P      ? 20230212 0551   56.4800 GAU  0.00e+00 -1.00e+00 -1.00e+00 -1.00e+00 >    0.0000    0.0000    0.0000 -100000000000000000000.0000 -100000000000000000000.0000 -100000000000000000000.0000    0.0000   0.00 359.0  -1.0  0     0.0000
AMKA   ?    BHZ  ? Pn     ? 20230212 0552    0.8600 GAU  0.00e+00 -1.00e+00 -1.00e+00 -1.00e+00 >    0.0000    0.0000    0.0000 -100000000000000000000.0000 -100000000000000000000.0000 -100000000000000000000.0000    0.0000   0.00 359.0  -1.0  0     0.0000
ETKA   ?    BHE  ? S      ? 20230212 0552    1.3200 GAU  0.00e+00 -1.00e+00 -1.00e+00 -1.00e+00 >    0.0000    0.0000    0.0000  110.2327   -1.2385   -0.2480    0.0000   0.00 359.0  -1.0  0     0.0000
GSSP   ?    BHE  ? S      ? 20230212 0552    6.8500 GAU  0.00e+00 -1.00e+00 -1.00e+00 -1.00e+00 >    0.0000    0.0000    0.0000 -100000000000000000000.0000 -100000000000000000000.0000 -100000000000000000000.0000    0.0000   0.00 359.0  -1.0  0     0.0000
GSCK   ?    BHE  ? S      ? 20230212 0552    7.1500 GAU  0.00e+00 -1.00e+00 -1.00e+00 -1.00e+00 >    0.0000    0.0000    0.0000 -100000000000000000000.0000 -100000000000000000000.0000 -100000000000000000000.0000    0.0000   0.00 359.0  -1.0  0     0.0000
KOFP   ?    BHZ  ? P      ? 20230212 0552    9.9700 GAU  0.00e+00 -1.00e+00 -1.00e+00 -1.00e+00 >    0.0000    0.0000    0.0000 -100000000000000000000.0000 -100000000000000000000.0000 -100000000000000000000.0000    0.0000   0.00 359.0  -1.0  0     0.0000
GSIG   ?    BHE  ? S      ? 20230212 0552   11.2300 GAU  0.00e+00 -1.00e+00 -1.00e+00 -1.00e+00 >    0.0000    0.0000    0.0000 -100000000000000000000.0000 -100000000000000000000.0000 -100000000000000000000.0000    0.0000   0.00 359.0  -1.0  0     0.0000
CEPE   ?    BHE  ? S      ? 20230212 0552   14.1600 GAU  0.00e+00 -1.00e+00 -1.00e+00 -1.00e+00 >    0.0000    0.0000    0.0000 -100000000000000000000.0000 -100000000000000000000.0000 -100000000000000000000.0000    0.0000   0.00 359.0  -1.0  0     0.0000
CESW   ?    BHN  ? S      ? 20230212 0552   16.5800 GAU  0.00e+00 -1.00e+00 -1.00e+00 -1.00e+00 >    0.0000    0.0000    0.0000 -100000000000000000000.0000 -100000000000000000000.0000 -100000000000000000000.0000    0.0000   0.00 359.0  -1.0  0     0.0000
END_PHASE
END_NLLOC

